{"type": "FeatureCollection", "features": [{"type": "Feature", "properties": {"nom": "El Mariniyine", "osm_id": 2799556}, "geometry": {"type": "MultiPolygon", "coordinates": [[[[-5.0542408, 34.0453992], [-5.052563, 34.045846], [-5.0489517, 34.046804], [-5.047061, 34.0473038], [-5.0464488, 34.047434], [-5.0443803, 34.047815], [-5.0422991, 34.0483228], [-5.0390749, 34.0495351], [-5.0356325, 34.0507912], [-5.0308402, 34.0520797], [-5.0260758, 34.053191], [-5.0192211, 34.0550419], [-5.0138621, 34.0564153], [-5.0078593, 34.0575975], [-5.0045461, 34.0582668], [-5.0037489, 34.0584376], [-5.0022556, 34.0586592], [-4.9962182, 34.0595178], [-4.9930883, 34.0599535], [-4.9926834, 34.060024], [-4.9917466, 34.0603464], [-4.9915782, 34.0603804], [-4.990323, 34.0603351], [-4.9885849, 34.0602062], [-4.9878686, 34.0604123], [-4.9874641, 34.0607374], [-4.9871875, 34.0610629], [-4.9869858, 34.0613727], [-4.9868599, 34.0616725], [-4.9866179, 34.0625625], [-4.9863932, 34.0632406], [-4.9859654, 34.0637283], [-4.9854253, 34.0641259], [-4.9829201, 34.0660634], [-4.98233, 34.0666455], [-4.9815576, 34.0678365], [-4.9812605, 34.0680961], [-4.9807314, 34.0684008], [-4.9801849, 34.0685072], [-4.9796532, 34.0685697], [-4.9790202, 34.0686052], [-4.9785125, 34.0687605], [-4.9779151, 34.0690229], [-4.9770729, 34.0692673], [-4.9768315, 34.0696228], [-4.9768563, 34.0699003], [-4.9769528, 34.0702635], [-4.9769321, 34.0704116], [-4.9768804, 34.0705413], [-4.9768174, 34.070609], [-4.976751, 34.0706449], [-4.9766524, 34.0706924], [-4.9765465, 34.0707179], [-4.9764131, 34.0707115], [-4.9755655, 34.0702138], [-4.9751846, 34.0700272], [-4.9747179, 34.0700805], [-4.9746643, 34.0702272], [-4.9747984, 34.0705738], [-4.9751042, 34.0707426], [-4.975425, 34.0710079], [-4.9783724, 34.0723417], [-4.9801534, 34.0737779], [-4.9830716, 34.075022], [-4.9911183, 34.0755055], [-5.0036925, 34.0753277], [-5.0153011, 34.0741333], [-5.0216955, 34.0721782], [-5.0364583, 34.068019], [-5.0444406, 34.0649261], [-5.0518649, 34.0605176], [-5.0576585, 34.0567489], [-5.0557273, 34.0531223], [-5.0556415, 34.0505977], [-5.0542408, 34.0453992]]]]}}, {"type": "Feature", "properties": {"nom": "Agdal", "osm_id": 2799558}, "geometry": {"type": "MultiPolygon", "coordinates": [[[[-5.0390749, 34.0495351], [-5.0422991, 34.0483228], [-5.0402025, 34.0484582], [-5.0376372, 34.0476328], [-5.0367252, 34.0466371], [-5.0344408, 34.0395719], [-5.030245, 34.0323679], [-5.0276701, 34.0271397], [-5.0276165, 34.0264551], [-5.0270371, 34.0232628], [-5.0263934, 34.0222402], [-5.0246875, 34.0207019], [-5.0232391, 34.0195725], [-5.0222421, 34.0191248], [-5.0208358, 34.0185499], [-5.0186042, 34.0172159], [-5.0181982, 34.0169743], [-5.017585, 34.0165757], [-5.0079885, 34.0136289], [-5.0077853, 34.0135663], [-5.0077333, 34.0135591], [-5.0074727, 34.0135137], [-5.0055472, 34.0131785], [-5.0035839, 34.0135965], [-4.9968998, 34.0132852], [-4.9967389, 34.0151706], [-4.9963634, 34.015304], [-4.9922542, 34.0164334], [-4.9906631, 34.0168405], [-4.987437, 34.0176517], [-4.9859778, 34.0179629], [-4.9857418, 34.0181497], [-4.9866967, 34.0193413], [-4.9860744, 34.0195014], [-4.9832098, 34.0206841], [-4.9819009, 34.0208263], [-4.9810855, 34.020693], [-4.9806778, 34.0210753], [-4.9777488, 34.0240987], [-4.9752919, 34.0266951], [-4.9736719, 34.0283846], [-4.97321, 34.0291893], [-4.9717836, 34.0323057], [-4.9716548, 34.0362177], [-4.9692945, 34.0381381], [-4.9684791, 34.039205], [-4.9686937, 34.0419788], [-4.9688206, 34.0432699], [-4.9684451, 34.0444612], [-4.9684344, 34.045288], [-4.9689172, 34.0462747], [-4.969915, 34.0474482], [-4.9706874, 34.0485416], [-4.9715672, 34.0505951], [-4.9719534, 34.0519284], [-4.9720983, 34.052564], [-4.9722699, 34.0531774], [-4.9725489, 34.0537507], [-4.9726494, 34.0539359], [-4.9726955, 34.0541353], [-4.9729009, 34.0538649], [-4.9729906, 34.0537397], [-4.9734948, 34.0535042], [-4.9740796, 34.0534197], [-4.9745194, 34.0534953], [-4.9748199, 34.0536197], [-4.9750344, 34.0537931], [-4.9754748, 34.0543719], [-4.9755011, 34.0544064], [-4.9759196, 34.0549753], [-4.9764828, 34.0552597], [-4.9771963, 34.0553575], [-4.9778561, 34.0551886], [-4.9783335, 34.0548197], [-4.9792509, 34.0537219], [-4.9798463, 34.0533842], [-4.9805222, 34.053153], [-4.9812518, 34.0530197], [-4.9817721, 34.0528375], [-4.9824051, 34.0523841], [-4.9829738, 34.0519664], [-4.9834512, 34.051673], [-4.983875, 34.0515441], [-4.9843417, 34.051473], [-4.9849747, 34.0514819], [-4.9868415, 34.051513], [-4.9881397, 34.0514774], [-4.9887137, 34.0514108], [-4.9894057, 34.0511797], [-4.9909721, 34.0504685], [-4.9920879, 34.049864], [-4.9929033, 34.0492729], [-4.9933719, 34.048848], [-4.9940726, 34.0480201], [-4.9943835, 34.0482242], [-4.994879, 34.0492253], [-4.9949211, 34.0492781], [-4.9949833, 34.0493244], [-4.9950824, 34.0493737], [-4.9960448, 34.0497045], [-4.996202, 34.0497406], [-4.9963117, 34.0497535], [-5.0018648, 34.0501081], [-5.0025432, 34.0527619], [-5.0037019, 34.0560419], [-5.0045461, 34.0582668], [-5.0078593, 34.0575975], [-5.0138621, 34.0564153], [-5.0192211, 34.0550419], [-5.0260758, 34.053191], [-5.0308402, 34.0520797], [-5.0356325, 34.0507912], [-5.0390749, 34.0495351]], [[-5.0132552, 34.0164387], [-5.0127211, 34.0168773], [-5.012358, 34.0165777], [-5.0128921, 34.0161323], [-5.0132552, 34.0164387]]]]}}, {"type": "Feature", "properties": {"nom": "Saiss", "osm_id": 2799559}, "geometry": {"type": "MultiPolygon", "coordinates": [[[[-5.0161238, 33.988955], [-5.0127912, 33.9887354], [-5.0114699, 33.984931], [-5.0095062, 33.9838009], [-5.0041503, 33.9839699], [-5.0011827, 33.9836532], [-4.9981358, 33.9840802], [-4.9950459, 33.9844717], [-4.9880893, 33.9836254], [-4.9821283, 33.9876031], [-4.9809267, 33.9884571], [-4.9760344, 33.9906632], [-4.9728157, 33.9915883], [-4.9698975, 33.9916595], [-4.9661638, 33.9908055], [-4.9647476, 33.9912325], [-4.9643085, 33.9914274], [-4.9617006, 33.9925846], [-4.9546604, 33.9974094], [-4.9500684, 33.9999355], [-4.9472789, 34.0021057], [-4.9443607, 34.0024971], [-4.9431183, 34.0040411], [-4.9431612, 34.0061757], [-4.9439337, 34.0093419], [-4.9449207, 34.0124724], [-4.9461224, 34.0138242], [-4.9476652, 34.0149838], [-4.9498109, 34.0157664], [-4.953845, 34.0176873], [-4.9547891, 34.0183275], [-4.958997, 34.0208672], [-4.9611427, 34.0223612], [-4.9653892, 34.0242321], [-4.9683504, 34.0258682], [-4.97321, 34.0291893], [-4.9736719, 34.0283846], [-4.9752919, 34.0266951], [-4.9777488, 34.0240987], [-4.9806778, 34.0210753], [-4.9810855, 34.020693], [-4.9819009, 34.0208263], [-4.9832098, 34.0206841], [-4.9860744, 34.0195014], [-4.9866967, 34.0193413], [-4.9857418, 34.0181497], [-4.9859778, 34.0179629], [-4.987437, 34.0176517], [-4.9906631, 34.0168405], [-4.9922542, 34.0164334], [-4.9963634, 34.015304], [-4.9967389, 34.0151706], [-4.9968998, 34.0132852], [-5.0035839, 34.0135965], [-5.0055472, 34.0131785], [-5.0074727, 34.0135137], [-5.0077333, 34.0135591], [-5.0077853, 34.0135663], [-5.0077986, 34.0135297], [-5.0091704, 34.0099189], [-5.0097444, 34.0077533], [-5.0104655, 34.0037029], [-5.0104832, 34.003608], [-5.0107485, 34.0026595], [-5.0108884, 34.0021217], [-5.0111148, 34.0016424], [-5.0114871, 34.0011396], [-5.0122175, 34.0002739], [-5.013218, 33.999062], [-5.0136701, 33.9973152], [-5.0142963, 33.994896], [-5.0146167, 33.9936943], [-5.0148514, 33.9927536], [-5.0149798, 33.9922563], [-5.01524, 33.9914093], [-5.0154117, 33.9909738], [-5.0155165, 33.9909468], [-5.016053, 33.9895636], [-5.0161066, 33.9893234], [-5.0161238, 33.988955]]]]}}, {"type": "Feature", "properties": {"nom": "Zouagha", "osm_id": 2799560}, "geometry": {"type": "MultiPolygon", "coordinates": [[[[-5.0776142, 34.0265221], [-5.0770563, 34.0240323], [-5.0778287, 34.0208667], [-5.0781791, 34.0188682], [-5.0727739, 34.011454], [-5.0699072, 34.0070437], [-5.0684481, 34.0052169], [-5.070576, 34.003329], [-5.0702327, 33.9976009], [-5.0694173, 33.9939362], [-5.06504, 33.9862503], [-5.0523799, 33.9764285], [-5.0458997, 33.9808058], [-5.0410123, 33.9831283], [-5.0345701, 33.9838661], [-5.0223392, 33.9811616], [-5.0220388, 33.9825495], [-5.0217169, 33.9890472], [-5.019142, 33.9891539], [-5.0161238, 33.988955], [-5.0161066, 33.9893234], [-5.016053, 33.9895636], [-5.0155165, 33.9909468], [-5.0154117, 33.9909738], [-5.01524, 33.9914093], [-5.0149798, 33.9922563], [-5.0148514, 33.9927536], [-5.0146167, 33.9936943], [-5.0142963, 33.994896], [-5.0136701, 33.9973152], [-5.013218, 33.999062], [-5.0122175, 34.0002739], [-5.0114871, 34.0011396], [-5.0111148, 34.0016424], [-5.0108884, 34.0021217], [-5.0107485, 34.0026595], [-5.0104832, 34.003608], [-5.0104655, 34.0037029], [-5.0097444, 34.0077533], [-5.0091704, 34.0099189], [-5.0077986, 34.0135297], [-5.0077853, 34.0135663], [-5.0079885, 34.0136289], [-5.017585, 34.0165757], [-5.0181982, 34.0169743], [-5.0186042, 34.0172159], [-5.0208358, 34.0185499], [-5.0222421, 34.0191248], [-5.0232391, 34.0195725], [-5.0246875, 34.0207019], [-5.0263934, 34.0222402], [-5.0270371, 34.0232628], [-5.0276165, 34.0264551], [-5.0276701, 34.0271397], [-5.030245, 34.0323679], [-5.0344408, 34.0395719], [-5.0367252, 34.0466371], [-5.0376372, 34.0476328], [-5.0402025, 34.0484582], [-5.0422991, 34.0483228], [-5.0443803, 34.047815], [-5.0464488, 34.047434], [-5.047061, 34.0473038], [-5.0489517, 34.046804], [-5.052563, 34.045846], [-5.0542408, 34.0453992], [-5.0633649, 34.0429914], [-5.0634735, 34.0424405], [-5.0615424, 34.0390977], [-5.0636881, 34.0372129], [-5.0636452, 34.0351858], [-5.065791, 34.03387], [-5.0671214, 34.0327319], [-5.0689667, 34.0309181], [-5.0735372, 34.0268777], [-5.0776142, 34.0265221]]]]}}, {"type": "Feature", "properties": {"nom": "Jnan El Ouard", "osm_id": 2799562}, "geometry": {"type": "MultiPolygon", "coordinates": [[[[-4.9726955, 34.0541353], [-4.9726494, 34.0539359], [-4.9725489, 34.0537507], [-4.9722699, 34.0531774], [-4.9720983, 34.052564], [-4.9719534, 34.0519284], [-4.9715672, 34.0505951], [-4.9706874, 34.0485416], [-4.969915, 34.0474482], [-4.9689172, 34.0462747], [-4.9684344, 34.045288], [-4.9684451, 34.0444612], [-4.9688206, 34.0432699], [-4.9686937, 34.0419788], [-4.9617006, 34.0433088], [-4.9559521, 34.0427042], [-4.9546597, 34.0426767], [-4.9469356, 34.0425122], [-4.9410219, 34.0440555], [-4.9411849, 34.0485111], [-4.9377101, 34.0540823], [-4.9385255, 34.0567845], [-4.9402421, 34.0600554], [-4.9417442, 34.0652816], [-4.9390405, 34.0693699], [-4.9380535, 34.0729603], [-4.9395126, 34.0744888], [-4.9418515, 34.0720574], [-4.9437397, 34.06996], [-4.9448985, 34.0679692], [-4.947954, 34.0662721], [-4.9492758, 34.0647341], [-4.9523142, 34.0663441], [-4.9549095, 34.0671582], [-4.9548802, 34.0672248], [-4.9546705, 34.0677014], [-4.954416, 34.0682798], [-4.9578589, 34.0699244], [-4.9586528, 34.0728536], [-4.9614209, 34.0730527], [-4.9647683, 34.0718085], [-4.9661798, 34.07101], [-4.9672812, 34.0706], [-4.9657077, 34.0698454], [-4.965541, 34.0697133], [-4.965439, 34.0695609], [-4.9654581, 34.0691101], [-4.9655716, 34.0686808], [-4.9658184, 34.0672232], [-4.9655716, 34.0668677], [-4.9653141, 34.0667166], [-4.9646275, 34.0666544], [-4.9637155, 34.0671699], [-4.9635224, 34.0672232], [-4.962015, 34.06688], [-4.9618594, 34.0666955], [-4.962192, 34.0656501], [-4.9623315, 34.0649035], [-4.9618272, 34.0640148], [-4.9595205, 34.0629838], [-4.9593435, 34.0627349], [-4.9616234, 34.0622638], [-4.9623476, 34.0616861], [-4.9631469, 34.0604773], [-4.963635, 34.0600507], [-4.9646811, 34.0594863], [-4.9658988, 34.0590285], [-4.9665962, 34.0586996], [-4.9675081, 34.0577086], [-4.968007, 34.0574552], [-4.969847, 34.0568775], [-4.971172, 34.0563975], [-4.9715744, 34.0560286], [-4.9726955, 34.0541353]]]]}}, {"type": "Feature", "properties": {"nom": "Fès-Médina", "osm_id": 2799583}, "geometry": {"type": "MultiPolygon", "coordinates": [[[[-4.9909721, 34.0504685], [-4.9894057, 34.0511797], [-4.9887137, 34.0514108], [-4.9881397, 34.0514774], [-4.9868415, 34.051513], [-4.9849747, 34.0514819], [-4.9843417, 34.051473], [-4.983875, 34.0515441], [-4.9834512, 34.051673], [-4.9829738, 34.0519664], [-4.9824051, 34.0523841], [-4.9817721, 34.0528375], [-4.9812518, 34.0530197], [-4.9805222, 34.053153], [-4.9798463, 34.0533842], [-4.9792509, 34.0537219], [-4.9783335, 34.0548197], [-4.9778561, 34.0551886], [-4.9771963, 34.0553575], [-4.9764828, 34.0552597], [-4.9759196, 34.0549753], [-4.9755011, 34.0544064], [-4.9754748, 34.0543719], [-4.9750344, 34.0537931], [-4.9748199, 34.0536197], [-4.9745194, 34.0534953], [-4.9740796, 34.0534197], [-4.9734948, 34.0535042], [-4.9729906, 34.0537397], [-4.9729009, 34.0538649], [-4.9726955, 34.0541353], [-4.9715744, 34.0560286], [-4.971172, 34.0563975], [-4.969847, 34.0568775], [-4.968007, 34.0574552], [-4.9675081, 34.0577086], [-4.9665962, 34.0586996], [-4.9658988, 34.0590285], [-4.9646811, 34.0594863], [-4.963635, 34.0600507], [-4.9631469, 34.0604773], [-4.9623476, 34.0616861], [-4.9616234, 34.0622638], [-4.9593435, 34.0627349], [-4.9595205, 34.0629838], [-4.9618272, 34.0640148], [-4.9623315, 34.0649035], [-4.962192, 34.0656501], [-4.9618594, 34.0666955], [-4.962015, 34.06688], [-4.9635224, 34.0672232], [-4.9637155, 34.0671699], [-4.9646275, 34.0666544], [-4.9653141, 34.0667166], [-4.9655716, 34.0668677], [-4.9658184, 34.0672232], [-4.9655716, 34.0686808], [-4.9654581, 34.0691101], [-4.965439, 34.0695609], [-4.965541, 34.0697133], [-4.9657077, 34.0698454], [-4.9672812, 34.0706], [-4.9679711, 34.0709773], [-4.9685596, 34.0712319], [-4.9688549, 34.0711917], [-4.9690719, 34.0709848], [-4.9691242, 34.0695175], [-4.9694024, 34.0694115], [-4.9694683, 34.0693269], [-4.9701206, 34.0691074], [-4.972438, 34.0703827], [-4.972585, 34.0715602], [-4.9733382, 34.0715105], [-4.9743371, 34.0712074], [-4.9751586, 34.0712545], [-4.975425, 34.0710079], [-4.9751042, 34.0707426], [-4.9747984, 34.0705738], [-4.9746643, 34.0702272], [-4.9747179, 34.0700805], [-4.9751846, 34.0700272], [-4.9755655, 34.0702138], [-4.9764131, 34.0707115], [-4.9765465, 34.0707179], [-4.9766524, 34.0706924], [-4.976751, 34.0706449], [-4.9768174, 34.070609], [-4.9768804, 34.0705413], [-4.9769321, 34.0704116], [-4.9769528, 34.0702635], [-4.9768563, 34.0699003], [-4.9768315, 34.0696228], [-4.9770729, 34.0692673], [-4.9779151, 34.0690229], [-4.9785125, 34.0687605], [-4.9790202, 34.0686052], [-4.9796532, 34.0685697], [-4.9801849, 34.0685072], [-4.9807314, 34.0684008], [-4.9812605, 34.0680961], [-4.9815576, 34.0678365], [-4.98233, 34.0666455], [-4.9829201, 34.0660634], [-4.9854253, 34.0641259], [-4.9859654, 34.0637283], [-4.9863932, 34.0632406], [-4.9866179, 34.0625625], [-4.9868599, 34.0616725], [-4.9869858, 34.0613727], [-4.9871875, 34.0610629], [-4.9874641, 34.0607374], [-4.9878686, 34.0604123], [-4.9870507, 34.0596729], [-4.9861656, 34.0587485], [-4.9858598, 34.058273], [-4.985023, 34.057753], [-4.9843149, 34.056713], [-4.9839394, 34.0564375], [-4.9847319, 34.0559131], [-4.9848922, 34.0558094], [-4.9849914, 34.0557328], [-4.9850544, 34.0556872], [-4.9851081, 34.0556439], [-4.9851483, 34.0556028], [-4.9851899, 34.0555561], [-4.9852301, 34.0555028], [-4.9852784, 34.0554394], [-4.9853127, 34.0553942], [-4.9856667, 34.0548864], [-4.9866108, 34.0534019], [-4.9868308, 34.0530908], [-4.9870507, 34.0529086], [-4.9889497, 34.0522819], [-4.9891589, 34.0521886], [-4.9905054, 34.0510108], [-4.9909721, 34.0504685]]]]}}]}