{"type": "FeatureCollection", "features": [{"type": "Feature", "properties": {"nom": "Annakhil", "osm_id": 2799527}, "geometry": {"type": "MultiPolygon", "coordinates": [[[[-7.9878148, 31.6915571], [-7.9903667, 31.6918413], [-7.9902559, 31.691554], [-7.9901867, 31.6913881], [-7.9900644, 31.6910215], [-7.9899311, 31.6907795], [-7.9897253, 31.6904284], [-7.989525, 31.6901505], [-7.9895194, 31.6898858], [-7.9894774, 31.6896249], [-7.9897128, 31.6892664], [-7.9899446, 31.6889752], [-7.9904624, 31.688312], [-7.9907217, 31.6877988], [-7.9908166, 31.6875196], [-7.9907997, 31.6871396], [-7.9907658, 31.6869722], [-7.9906393, 31.6866573], [-7.9907295, 31.6863586], [-7.9907386, 31.6862208], [-7.9905949, 31.6857772], [-7.9904678, 31.6855099], [-7.9905329, 31.6851369], [-7.9905143, 31.6849231], [-7.990857, 31.6844606], [-7.9912148, 31.6840824], [-7.991384, 31.6836549], [-7.9914263, 31.6833719], [-7.991386, 31.6831592], [-7.9912487, 31.6827124], [-7.9911114, 31.6823476], [-7.991012, 31.6814653], [-7.9910655, 31.6813022], [-7.9910514, 31.6808418], [-7.9909335, 31.6806667], [-7.99083, 31.680583], [-7.990591, 31.6801624], [-7.990711, 31.6798736], [-7.9907471, 31.6794364], [-7.9906766, 31.6788944], [-7.9906558, 31.6785972], [-7.9906854, 31.6783561], [-7.9907318, 31.6781432], [-7.9907694, 31.6779839], [-7.9909556, 31.6777984], [-7.9910522, 31.6775159], [-7.9911304, 31.677252], [-7.9911416, 31.6770333], [-7.9911136, 31.6767771], [-7.9909387, 31.67658], [-7.9908651, 31.6765003], [-7.9907982, 31.676314], [-7.9908429, 31.6761028], [-7.9908994, 31.675904], [-7.9908767, 31.6756974], [-7.9907532, 31.6755204], [-7.9905092, 31.6754759], [-7.9901773, 31.6754002], [-7.9899695, 31.6752688], [-7.9896981, 31.675031], [-7.9895071, 31.6748764], [-7.9893803, 31.6748148], [-7.9892871, 31.6747715], [-7.9892732, 31.6747069], [-7.9894034, 31.6745506], [-7.9896154, 31.6744175], [-7.9898319, 31.6742753], [-7.9899636, 31.6740545], [-7.9900245, 31.6739109], [-7.990139, 31.6737122], [-7.9901694, 31.6735245], [-7.9901299, 31.6733158], [-7.9901502, 31.6729852], [-7.9899668, 31.6728393], [-7.9898322, 31.6724773], [-7.9897861, 31.6722077], [-7.9897282, 31.6717153], [-7.9896501, 31.6715559], [-7.9896298, 31.6713838], [-7.9895384, 31.6712336], [-7.9893787, 31.6711804], [-7.9891464, 31.6711764], [-7.9889339, 31.6712216], [-7.9887039, 31.6711476], [-7.9885728, 31.6710182], [-7.9884504, 31.670788], [-7.9883975, 31.6704864], [-7.9882358, 31.670008], [-7.9882324, 31.669648], [-7.9882592, 31.6694728], [-7.9882947, 31.669318], [-7.9885433, 31.669248], [-7.9888341, 31.6692592], [-7.9890103, 31.6692611], [-7.9891078, 31.6692892], [-7.989337, 31.6692892], [-7.9896698, 31.669262], [-7.9897185, 31.6691161], [-7.9896426, 31.6688577], [-7.9896001, 31.668574], [-7.9893977, 31.6680536], [-7.9893049, 31.6679245], [-7.9891426, 31.6677348], [-7.989219, 31.6675043], [-7.989212, 31.6669842], [-7.9890731, 31.6666118], [-7.988361, 31.6655858], [-7.988144, 31.6650854], [-7.988186, 31.6649246], [-7.9885219, 31.664871], [-7.9887675, 31.6647032], [-7.9888232, 31.6644243], [-7.9888741, 31.6642331], [-7.9887879, 31.6641079], [-7.9886829, 31.6640072], [-7.988158, 31.6639238], [-7.9879127, 31.6637887], [-7.9877385, 31.6635456], [-7.9872762, 31.6632686], [-7.9870237, 31.6631894], [-7.9865928, 31.6629704], [-7.9861494, 31.6628516], [-7.985682, 31.6625074], [-7.9854644, 31.6622067], [-7.9850219, 31.6620639], [-7.9847447, 31.6621109], [-7.9845016, 31.662191], [-7.9842037, 31.6621546], [-7.9838258, 31.6620236], [-7.9838355, 31.6619018], [-7.9839621, 31.6617752], [-7.9840881, 31.6615518], [-7.9840602, 31.6613895], [-7.9840011, 31.6612752], [-7.9840284, 31.661127], [-7.9837049, 31.660854], [-7.9835119, 31.6607233], [-7.9833289, 31.6605174], [-7.9832017, 31.6602251], [-7.9832729, 31.6599922], [-7.9833009, 31.6597539], [-7.9835949, 31.659599], [-7.9839798, 31.6595156], [-7.9840708, 31.6593667], [-7.9839658, 31.6591105], [-7.9837768, 31.6588901], [-7.9837208, 31.6586816], [-7.9837628, 31.6583123], [-7.984025, 31.658027], [-7.9839863, 31.6569727], [-7.9841268, 31.6563285], [-7.9844977, 31.6553872], [-7.9846027, 31.6549881], [-7.9849246, 31.6539932], [-7.9849806, 31.6535285], [-7.9851206, 31.6530161], [-7.9853515, 31.6515803], [-7.9852046, 31.6509607], [-7.9853445, 31.6503114], [-7.9858274, 31.649662], [-7.9859674, 31.6489411], [-7.9860864, 31.6483512], [-7.9860514, 31.6479699], [-7.9860816, 31.6475695], [-7.9862987, 31.6472893], [-7.9862987, 31.6468957], [-7.9862462, 31.6466661], [-7.9863793, 31.6464932], [-7.9864913, 31.6462487], [-7.9864563, 31.6457449], [-7.9863945, 31.6454641], [-7.9863612, 31.6451771], [-7.986364, 31.6449185], [-7.9864585, 31.6444426], [-7.9864607, 31.6440733], [-7.986459, 31.6438823], [-7.986554, 31.643491], [-7.986565, 31.6433963], [-7.9864415, 31.6432565], [-7.9860954, 31.6430521], [-7.9847329, 31.6426136], [-7.9841213, 31.6423122], [-7.9838202, 31.642108], [-7.9836228, 31.6419523], [-7.9833997, 31.6416782], [-7.983263, 31.6414262], [-7.982796, 31.640749], [-7.9819798, 31.639879], [-7.981364, 31.6395172], [-7.98064, 31.6389805], [-7.9803651, 31.6387409], [-7.980229, 31.6385373], [-7.9797225, 31.6376995], [-7.9788997, 31.6368284], [-7.9782312, 31.636101], [-7.9782097, 31.6348313], [-7.9777377, 31.634], [-7.97616, 31.6329326], [-7.9750759, 31.6325265], [-7.9740993, 31.6323167], [-7.973768, 31.6321182], [-7.9724591, 31.6305196], [-7.971633, 31.628519], [-7.9704528, 31.6272766], [-7.9698842, 31.6261164], [-7.9704635, 31.6253034], [-7.9705493, 31.6246456], [-7.969455, 31.6228459], [-7.9681032, 31.6216582], [-7.9669337, 31.6205528], [-7.9656355, 31.6196392], [-7.964509, 31.618689], [-7.9639297, 31.6177023], [-7.9627924, 31.6163684], [-7.961476, 31.6154072], [-7.9604857, 31.6147969], [-7.9589837, 31.6139472], [-7.9574924, 31.6131706], [-7.9566877, 31.6120924], [-7.9561434, 31.6112796], [-7.9558616, 31.6108589], [-7.956001, 31.6094427], [-7.9558723, 31.6080173], [-7.955883, 31.6070762], [-7.9550891, 31.6053492], [-7.9565202, 31.6050902], [-7.9611412, 31.6031181], [-7.9605124, 31.6024043], [-7.9602927, 31.6020898], [-7.9594394, 31.6010463], [-7.9586382, 31.6002151], [-7.9580824, 31.5997294], [-7.9563122, 31.597847], [-7.9564442, 31.5954568], [-7.9564619, 31.5951359], [-7.954958, 31.5937287], [-7.9537277, 31.5925052], [-7.9475505, 31.5867514], [-7.9453014, 31.586917], [-7.9429044, 31.5854803], [-7.9377953, 31.5809488], [-7.9331626, 31.5751338], [-7.9296843, 31.5696146], [-7.9281844, 31.5650422], [-7.9273561, 31.5622467], [-7.9271196, 31.5617193], [-7.9247812, 31.5565037], [-7.9205661, 31.5542793], [-7.920509, 31.5542492], [-7.912089, 31.5610381], [-7.9095763, 31.5642597], [-7.9032506, 31.5723697], [-7.9002894, 31.572282], [-7.8993453, 31.5713313], [-7.8993861, 31.5695781], [-7.8991286, 31.5676036], [-7.8997432, 31.5658649], [-7.9005898, 31.5634699], [-7.9027764, 31.5576209], [-7.9025505, 31.5547569], [-7.8998232, 31.5497083], [-7.899532, 31.5489323], [-7.8987632, 31.5468831], [-7.8941348, 31.5462595], [-7.8890579, 31.5441986], [-7.886425, 31.5463053], [-7.8847385, 31.5540164], [-7.8865002, 31.5600338], [-7.8890218, 31.5647634], [-7.8895386, 31.5657328], [-7.8944079, 31.5735269], [-7.8964765, 31.5775474], [-7.8985277, 31.5815338], [-7.9042376, 31.587533], [-7.9153098, 31.5900243], [-7.9139365, 31.5965969], [-7.915358, 31.6054511], [-7.9172806, 31.6108129], [-7.9198588, 31.6153104], [-7.9183139, 31.6281737], [-7.9159106, 31.6319008], [-7.914709, 31.6376739], [-7.914709, 31.6446888], [-7.9148491, 31.6452573], [-7.9170472, 31.6541767], [-7.9172839, 31.6551371], [-7.9199101, 31.6641961], [-7.920803, 31.6670453], [-7.9235495, 31.6752267], [-7.9250945, 31.6812893], [-7.9224123, 31.6834694], [-7.9249025, 31.6877759], [-7.9270096, 31.6906902], [-7.9277021, 31.6914049], [-7.9288437, 31.6915993], [-7.9300244, 31.6921672], [-7.9320661, 31.6926805], [-7.9335198, 31.6933305], [-7.9344635, 31.6938154], [-7.9351501, 31.6942362], [-7.9356265, 31.6942517], [-7.9361509, 31.6942895], [-7.9365309, 31.6941163], [-7.9371122, 31.6938513], [-7.9379214, 31.6936351], [-7.9381508, 31.6935738], [-7.9386507, 31.6934327], [-7.9400391, 31.6930407], [-7.9412365, 31.6925253], [-7.9419273, 31.6922446], [-7.942305, 31.6917991], [-7.9425453, 31.6912222], [-7.9428416, 31.6909542], [-7.9433501, 31.6902819], [-7.9437053, 31.6901702], [-7.9441237, 31.6894243], [-7.9450641, 31.6887784], [-7.9459991, 31.6886797], [-7.94722, 31.6885411], [-7.9473824, 31.688515], [-7.9477458, 31.6884566], [-7.9483466, 31.6883489], [-7.9491543, 31.6883227], [-7.9506306, 31.6877896], [-7.9516605, 31.6876508], [-7.9533686, 31.6875997], [-7.9543814, 31.687848], [-7.955171, 31.6883446], [-7.9559263, 31.6889581], [-7.95645, 31.6896337], [-7.9568577, 31.6900263], [-7.9574112, 31.6904115], [-7.9577777, 31.690412], [-7.9582095, 31.6904311], [-7.9586387, 31.6902691], [-7.9590367, 31.6903001], [-7.9593575, 31.690244], [-7.9601295, 31.6902682], [-7.9609388, 31.6902435], [-7.9614899, 31.6902476], [-7.9621014, 31.6901983], [-7.9628271, 31.6901997], [-7.9646381, 31.6899587], [-7.9680714, 31.6899295], [-7.9688799, 31.6899523], [-7.9698777, 31.69015], [-7.9711592, 31.6905096], [-7.9728092, 31.6904919], [-7.9739079, 31.6904699], [-7.9752554, 31.6901997], [-7.9759249, 31.6903239], [-7.9770233, 31.6903395], [-7.9784951, 31.6903403], [-7.9795984, 31.6901486], [-7.9811176, 31.6906379], [-7.9825338, 31.6910396], [-7.9832634, 31.690952], [-7.9839691, 31.6909801], [-7.9845919, 31.6909696], [-7.9860763, 31.6912873], [-7.9878148, 31.6915571]]]]}}, {"type": "Feature", "properties": {"nom": "Sidi Youssef Ben Ali", "osm_id": 2799529}, "geometry": {"type": "MultiPolygon", "coordinates": [[[[-7.9794931, 31.5746673], [-7.9801885, 31.5736966], [-7.980064, 31.5733334], [-7.9799572, 31.5726666], [-7.9772506, 31.5710598], [-7.9762056, 31.5672206], [-7.9788331, 31.5639708], [-7.9754599, 31.5564598], [-7.9688467, 31.5569644], [-7.9683887, 31.5568492], [-7.9611133, 31.554997], [-7.9518265, 31.553121], [-7.9364542, 31.5523237], [-7.9356216, 31.5562111], [-7.929768, 31.5591037], [-7.9279283, 31.5615021], [-7.9273561, 31.5622467], [-7.9281844, 31.5650422], [-7.9296843, 31.5696146], [-7.9331626, 31.5751338], [-7.9377953, 31.5809488], [-7.9429044, 31.5854803], [-7.9453014, 31.586917], [-7.9475505, 31.5867514], [-7.9537277, 31.5925052], [-7.954958, 31.5937287], [-7.9564619, 31.5951359], [-7.9564442, 31.5954568], [-7.9563122, 31.597847], [-7.9580824, 31.5997294], [-7.9586382, 31.6002151], [-7.9594394, 31.6010463], [-7.9602927, 31.6020898], [-7.9605124, 31.6024043], [-7.9611412, 31.6031181], [-7.9565202, 31.6050902], [-7.9550891, 31.6053492], [-7.955883, 31.6070762], [-7.9558723, 31.6080173], [-7.956001, 31.6094427], [-7.9558616, 31.6108589], [-7.9561434, 31.6112796], [-7.9566877, 31.6120924], [-7.9574924, 31.6131706], [-7.9589837, 31.6139472], [-7.9604857, 31.6147969], [-7.961476, 31.6154072], [-7.9627924, 31.6163684], [-7.9639297, 31.6177023], [-7.964509, 31.618689], [-7.9656355, 31.6196392], [-7.9669337, 31.6205528], [-7.9681032, 31.6216582], [-7.969455, 31.6228459], [-7.9705493, 31.6246456], [-7.9704635, 31.6253034], [-7.9698842, 31.6261164], [-7.9704521, 31.6257874], [-7.9787737, 31.6219025], [-7.977301, 31.6192536], [-7.9768043, 31.6171358], [-7.9766408, 31.6163667], [-7.9752432, 31.6115414], [-7.9747772, 31.610193], [-7.972421, 31.6027517], [-7.9710949, 31.5983189], [-7.9706128, 31.5967184], [-7.9701722, 31.5953297], [-7.9677363, 31.5880792], [-7.9658823, 31.5784993], [-7.9716437, 31.5771008], [-7.9738646, 31.5764427], [-7.9772355, 31.5753993], [-7.9770802, 31.5745243], [-7.9789071, 31.5740571], [-7.9794931, 31.5746673]]]]}}, {"type": "Feature", "properties": {"nom": "Gueliz", "osm_id": 2799533}, "geometry": {"type": "MultiPolygon", "coordinates": [[[[-8.0260125, 31.698263], [-8.0256451, 31.6955274], [-8.0257278, 31.6940504], [-8.0256419, 31.6921881], [-8.0256848, 31.6905996], [-8.0263286, 31.6882443], [-8.0279379, 31.6835882], [-8.0282356, 31.6827086], [-8.0288529, 31.6807376], [-8.0293326, 31.6792058], [-8.0303405, 31.6758244], [-8.0308776, 31.6744214], [-8.0336027, 31.666039], [-8.0345039, 31.6633178], [-8.0369716, 31.6557015], [-8.0395068, 31.647754], [-8.0406838, 31.6434996], [-8.0405765, 31.6415815], [-8.0400862, 31.6399173], [-8.0394638, 31.6388924], [-8.0383234, 31.6370144], [-8.036374, 31.6343088], [-8.0334311, 31.6295787], [-8.0317713, 31.6269414], [-8.0279304, 31.6266856], [-8.0256398, 31.6272337], [-8.0232794, 31.623849], [-8.0219061, 31.6242646], [-8.0198159, 31.6204537], [-8.0207484, 31.6200246], [-8.0179308, 31.6156143], [-8.0142243, 31.6100439], [-8.0108661, 31.6051554], [-8.0103609, 31.6041997], [-8.0102396, 31.6039945], [-8.0101088, 31.6038136], [-8.0098406, 31.6035464], [-8.0094785, 31.6032265], [-8.0089635, 31.6029044], [-8.0083761, 31.6026052], [-8.0078239, 31.6023046], [-8.0072629, 31.601945], [-8.0068472, 31.6016343], [-8.0065525, 31.6013941], [-8.0062813, 31.6011431], [-8.0060962, 31.6009261], [-8.005954, 31.6007091], [-8.005828, 31.6004555], [-8.005748, 31.6001937], [-8.0056913, 31.5999408], [-8.0056804, 31.5997153], [-8.0057153, 31.5993384], [-8.0058465, 31.598844], [-8.0059433, 31.598308], [-8.0059594, 31.5980042], [-8.0059605, 31.5976462], [-8.0059272, 31.5972617], [-8.0058977, 31.5970424], [-8.0057856, 31.5966123], [-8.0056375, 31.5961582], [-8.0055061, 31.5958612], [-8.0053559, 31.5955871], [-8.0052325, 31.5953975], [-8.005093, 31.5952444], [-8.0047702, 31.5949938], [-8.0030516, 31.5976784], [-8.0024673, 31.5985866], [-8.0016102, 31.599957], [-8.0000138, 31.6025193], [-7.9993367, 31.6035701], [-7.9976449, 31.6060804], [-7.9965562, 31.6077952], [-7.9958372, 31.6089562], [-7.9948027, 31.6105662], [-7.9930925, 31.6134307], [-7.9929973, 31.6135068], [-7.9959263, 31.6155991], [-7.9990698, 31.6216929], [-8.0022348, 31.6277498], [-8.0009326, 31.62839], [-8.0004045, 31.6286248], [-8.0000693, 31.628771], [-7.9998587, 31.6288726], [-7.9997514, 31.6289617], [-7.9996653, 31.6290688], [-7.9996036, 31.6292138], [-7.9995811, 31.6293179], [-7.9996012, 31.6294435], [-7.9996542, 31.6295577], [-7.9997063, 31.6296409], [-7.9997796, 31.6297267], [-8.0007559, 31.6308207], [-8.0008042, 31.6309234], [-8.0008256, 31.6310399], [-8.0008368, 31.63115], [-7.9996921, 31.633103], [-7.9984551, 31.6348952], [-7.997557, 31.6368116], [-7.995186, 31.6392414], [-7.992931, 31.642471], [-7.9927104, 31.6428427], [-7.9924453, 31.6438902], [-7.9921675, 31.6442062], [-7.9921712, 31.6445756], [-7.9909341, 31.6446322], [-7.988109, 31.6448991], [-7.986364, 31.6449185], [-7.9863612, 31.6451771], [-7.9863945, 31.6454641], [-7.9864563, 31.6457449], [-7.9864913, 31.6462487], [-7.9863793, 31.6464932], [-7.9862462, 31.6466661], [-7.9862987, 31.6468957], [-7.9862987, 31.6472893], [-7.9860816, 31.6475695], [-7.9860514, 31.6479699], [-7.9860864, 31.6483512], [-7.9859674, 31.6489411], [-7.9858274, 31.649662], [-7.9853445, 31.6503114], [-7.9852046, 31.6509607], [-7.9853515, 31.6515803], [-7.9851206, 31.6530161], [-7.9849806, 31.6535285], [-7.9849246, 31.6539932], [-7.9846027, 31.6549881], [-7.9844977, 31.6553872], [-7.9841268, 31.6563285], [-7.9839863, 31.6569727], [-7.984025, 31.658027], [-7.9837628, 31.6583123], [-7.9837208, 31.6586816], [-7.9837768, 31.6588901], [-7.9839658, 31.6591105], [-7.9840708, 31.6593667], [-7.9839798, 31.6595156], [-7.9835949, 31.659599], [-7.9833009, 31.6597539], [-7.9832729, 31.6599922], [-7.9832017, 31.6602251], [-7.9833289, 31.6605174], [-7.9835119, 31.6607233], [-7.9837049, 31.660854], [-7.9840284, 31.661127], [-7.9840011, 31.6612752], [-7.9840602, 31.6613895], [-7.9840881, 31.6615518], [-7.9839621, 31.6617752], [-7.9838355, 31.6619018], [-7.9838258, 31.6620236], [-7.9842037, 31.6621546], [-7.9845016, 31.662191], [-7.9847447, 31.6621109], [-7.9850219, 31.6620639], [-7.9854644, 31.6622067], [-7.985682, 31.6625074], [-7.9861494, 31.6628516], [-7.9865928, 31.6629704], [-7.9870237, 31.6631894], [-7.9872762, 31.6632686], [-7.9877385, 31.6635456], [-7.9879127, 31.6637887], [-7.988158, 31.6639238], [-7.9886829, 31.6640072], [-7.9887879, 31.6641079], [-7.9888741, 31.6642331], [-7.9888232, 31.6644243], [-7.9887675, 31.6647032], [-7.9885219, 31.664871], [-7.988186, 31.6649246], [-7.988144, 31.6650854], [-7.988361, 31.6655858], [-7.9890731, 31.6666118], [-7.989212, 31.6669842], [-7.989219, 31.6675043], [-7.9891426, 31.6677348], [-7.9893049, 31.6679245], [-7.9893977, 31.6680536], [-7.9896001, 31.668574], [-7.9896426, 31.6688577], [-7.9897185, 31.6691161], [-7.9896698, 31.669262], [-7.989337, 31.6692892], [-7.9891078, 31.6692892], [-7.9890103, 31.6692611], [-7.9888341, 31.6692592], [-7.9885433, 31.669248], [-7.9882947, 31.669318], [-7.9882592, 31.6694728], [-7.9882324, 31.669648], [-7.9882358, 31.670008], [-7.9883975, 31.6704864], [-7.9884504, 31.670788], [-7.9885728, 31.6710182], [-7.9887039, 31.6711476], [-7.9889339, 31.6712216], [-7.9891464, 31.6711764], [-7.9893787, 31.6711804], [-7.9895384, 31.6712336], [-7.9896298, 31.6713838], [-7.9896501, 31.6715559], [-7.9897282, 31.6717153], [-7.9897861, 31.6722077], [-7.9898322, 31.6724773], [-7.9899668, 31.6728393], [-7.9901502, 31.6729852], [-7.9901299, 31.6733158], [-7.9901694, 31.6735245], [-7.990139, 31.6737122], [-7.9900245, 31.6739109], [-7.9899636, 31.6740545], [-7.9898319, 31.6742753], [-7.9896154, 31.6744175], [-7.9894034, 31.6745506], [-7.9892732, 31.6747069], [-7.9892871, 31.6747715], [-7.9893803, 31.6748148], [-7.9895071, 31.6748764], [-7.9896981, 31.675031], [-7.9899695, 31.6752688], [-7.9901773, 31.6754002], [-7.9905092, 31.6754759], [-7.9907532, 31.6755204], [-7.9908767, 31.6756974], [-7.9908994, 31.675904], [-7.9908429, 31.6761028], [-7.9907982, 31.676314], [-7.9908651, 31.6765003], [-7.9909387, 31.67658], [-7.9911136, 31.6767771], [-7.9911416, 31.6770333], [-7.9911304, 31.677252], [-7.9910522, 31.6775159], [-7.9909556, 31.6777984], [-7.9907694, 31.6779839], [-7.9907318, 31.6781432], [-7.9906854, 31.6783561], [-7.9906558, 31.6785972], [-7.9906766, 31.6788944], [-7.9907471, 31.6794364], [-7.990711, 31.6798736], [-7.990591, 31.6801624], [-7.99083, 31.680583], [-7.9909335, 31.6806667], [-7.9910514, 31.6808418], [-7.9910655, 31.6813022], [-7.991012, 31.6814653], [-7.9911114, 31.6823476], [-7.9912487, 31.6827124], [-7.991386, 31.6831592], [-7.9914263, 31.6833719], [-7.991384, 31.6836549], [-7.9912148, 31.6840824], [-7.990857, 31.6844606], [-7.9905143, 31.6849231], [-7.9905329, 31.6851369], [-7.9904678, 31.6855099], [-7.9905949, 31.6857772], [-7.9907386, 31.6862208], [-7.9907295, 31.6863586], [-7.9906393, 31.6866573], [-7.9907658, 31.6869722], [-7.9907997, 31.6871396], [-7.9908166, 31.6875196], [-7.9907217, 31.6877988], [-7.9904624, 31.688312], [-7.9899446, 31.6889752], [-7.9897128, 31.6892664], [-7.9894774, 31.6896249], [-7.9895194, 31.6898858], [-7.989525, 31.6901505], [-7.9897253, 31.6904284], [-7.9899311, 31.6907795], [-7.9900644, 31.6910215], [-7.9901867, 31.6913881], [-7.9902559, 31.691554], [-7.9903667, 31.6918413], [-7.9878148, 31.6915571], [-7.9896879, 31.6918891], [-7.990844, 31.6926632], [-7.9915855, 31.6931278], [-7.9918894, 31.6933182], [-7.9931082, 31.6935373], [-7.9938807, 31.6938513], [-7.9946188, 31.6938294], [-7.9956011, 31.6936368], [-7.9961981, 31.6931429], [-7.997571, 31.69266], [-7.9981785, 31.6925233], [-7.9984744, 31.6922586], [-7.99891, 31.6920934], [-7.9995843, 31.691841], [-8.0005306, 31.6917323], [-8.0012172, 31.6923668], [-8.0019683, 31.6933879], [-8.0023642, 31.6942478], [-8.0030524, 31.6959946], [-8.0030987, 31.6960291], [-8.0038077, 31.6965879], [-8.0046719, 31.6966162], [-8.0051279, 31.6966418], [-8.0057073, 31.6965396], [-8.0064422, 31.6963657], [-8.0070001, 31.6960384], [-8.007322, 31.6958654], [-8.0077426, 31.6956692], [-8.0079871, 31.6954948], [-8.0084056, 31.6953159], [-8.0088133, 31.6952629], [-8.0095536, 31.6952237], [-8.0103904, 31.6952177], [-8.0112165, 31.6956226], [-8.0113694, 31.6957091], [-8.011871, 31.6959928], [-8.0121928, 31.6966742], [-8.012225, 31.6971708], [-8.0123318, 31.6978792], [-8.0132765, 31.6979376], [-8.0136985, 31.6978825], [-8.0143024, 31.6978214], [-8.0147151, 31.697731], [-8.0150992, 31.6975416], [-8.0158643, 31.6973622], [-8.0169274, 31.6969308], [-8.0180197, 31.696174], [-8.01907, 31.6958284], [-8.0196387, 31.6959015], [-8.0201644, 31.6959923], [-8.0203858, 31.6962106], [-8.0204874, 31.6962095], [-8.0207184, 31.696207], [-8.0213744, 31.6962539], [-8.022141, 31.6966748], [-8.023376, 31.6973543], [-8.0236255, 31.6979325], [-8.0238497, 31.6983313], [-8.0241062, 31.6986637], [-8.0243111, 31.6986508], [-8.0247948, 31.6984042], [-8.0254901, 31.6983124], [-8.0260125, 31.698263]]]]}}, {"type": "Feature", "properties": {"nom": "Marrakech-Medina", "osm_id": 2799534}, "geometry": {"type": "MultiPolygon", "coordinates": [[[[-7.9929973, 31.6135068], [-7.9905169, 31.616605], [-7.9910661, 31.6185318], [-7.9906799, 31.6186506], [-7.9902228, 31.6187192], [-7.9900218, 31.6187493], [-7.989862, 31.6187686], [-7.9868497, 31.6192262], [-7.9868604, 31.6193724], [-7.9850547, 31.6197396], [-7.9849153, 31.619091], [-7.9842608, 31.6192463], [-7.9838027, 31.6180659], [-7.9833918, 31.6173916], [-7.9825549, 31.6167886], [-7.9814738, 31.6165664], [-7.9813104, 31.6165328], [-7.9806166, 31.6165328], [-7.9805379, 31.6165328], [-7.9810667, 31.6178349], [-7.9810773, 31.6178663], [-7.9812675, 31.6183418], [-7.97983, 31.6186722], [-7.977301, 31.6192536], [-7.9787737, 31.6219025], [-7.9704521, 31.6257874], [-7.9698842, 31.6261164], [-7.9704528, 31.6272766], [-7.971633, 31.628519], [-7.9724591, 31.6305196], [-7.973768, 31.6321182], [-7.9740993, 31.6323167], [-7.9750759, 31.6325265], [-7.97616, 31.6329326], [-7.9777377, 31.634], [-7.9782097, 31.6348313], [-7.9782312, 31.636101], [-7.9788997, 31.6368284], [-7.9797225, 31.6376995], [-7.980229, 31.6385373], [-7.9803651, 31.6387409], [-7.98064, 31.6389805], [-7.981364, 31.6395172], [-7.9819798, 31.639879], [-7.982796, 31.640749], [-7.983263, 31.6414262], [-7.9833997, 31.6416782], [-7.9836228, 31.6419523], [-7.9838202, 31.642108], [-7.9841213, 31.6423122], [-7.9847329, 31.6426136], [-7.9860954, 31.6430521], [-7.9864415, 31.6432565], [-7.986565, 31.6433963], [-7.986554, 31.643491], [-7.986459, 31.6438823], [-7.9864607, 31.6440733], [-7.9864585, 31.6444426], [-7.986364, 31.6449185], [-7.988109, 31.6448991], [-7.9909341, 31.6446322], [-7.9921712, 31.6445756], [-7.9921675, 31.6442062], [-7.9924453, 31.6438902], [-7.9927104, 31.6428427], [-7.992931, 31.642471], [-7.995186, 31.6392414], [-7.997557, 31.6368116], [-7.9984551, 31.6348952], [-7.9996921, 31.633103], [-8.0008368, 31.63115], [-8.0008256, 31.6310399], [-8.0008042, 31.6309234], [-8.0007559, 31.6308207], [-7.9997796, 31.6297267], [-7.9997063, 31.6296409], [-7.9996542, 31.6295577], [-7.9996012, 31.6294435], [-7.9995811, 31.6293179], [-7.9996036, 31.6292138], [-7.9996653, 31.6290688], [-7.9997514, 31.6289617], [-7.9998587, 31.6288726], [-8.0000693, 31.628771], [-8.0004045, 31.6286248], [-8.0009326, 31.62839], [-8.0022348, 31.6277498], [-7.9990698, 31.6216929], [-7.9959263, 31.6155991], [-7.9929973, 31.6135068]]]]}}, {"type": "Feature", "properties": {"nom": "Ménara", "osm_id": 2799537}, "geometry": {"type": "MultiPolygon", "coordinates": [[[[-8.0881069, 31.7062764], [-8.0882645, 31.7051571], [-8.0893315, 31.7008584], [-8.0882994, 31.6923889], [-8.0884711, 31.6845377], [-8.0843083, 31.6843186], [-8.0709637, 31.6832212], [-8.0708188, 31.6825275], [-8.0706204, 31.6815778], [-8.0707063, 31.6790579], [-8.0743786, 31.6776875], [-8.0745686, 31.6746752], [-8.0745031, 31.6717913], [-8.0684124, 31.6684981], [-8.0685774, 31.668188], [-8.0685068, 31.6662198], [-8.0684392, 31.6645597], [-8.0686431, 31.6632265], [-8.0686249, 31.6616996], [-8.0682247, 31.6604869], [-8.0676131, 31.6594001], [-8.0668943, 31.6584687], [-8.0668312, 31.6581565], [-8.0667259, 31.6576358], [-8.0666583, 31.6565326], [-8.0665724, 31.6556193], [-8.0661647, 31.6540485], [-8.0658461, 31.6532046], [-8.0698769, 31.6545052], [-8.0700915, 31.653391], [-8.0686785, 31.6522293], [-8.068289, 31.6510164], [-8.0677022, 31.6497633], [-8.0684425, 31.6457447], [-8.0688786, 31.6439485], [-8.0695856, 31.6416294], [-8.0694188, 31.6387298], [-8.0696763, 31.6378712], [-8.0708457, 31.6327741], [-8.0707352, 31.6319721], [-8.0698506, 31.629063], [-8.0696457, 31.6279748], [-8.0768753, 31.6280787], [-8.0800698, 31.6281495], [-8.0834431, 31.6282172], [-8.0880673, 31.6282972], [-8.0877415, 31.6279161], [-8.0877085, 31.6277019], [-8.0876545, 31.6273507], [-8.0873965, 31.6256734], [-8.0858606, 31.6233361], [-8.0821034, 31.6215747], [-8.0809061, 31.6199914], [-8.0789389, 31.6174867], [-8.0762831, 31.6158933], [-8.0762852, 31.6119444], [-8.0770985, 31.60873], [-8.0763711, 31.6038305], [-8.0751673, 31.6012007], [-8.0734936, 31.597253], [-8.0725066, 31.5913677], [-8.0743948, 31.586981], [-8.0756823, 31.5836908], [-8.0766286, 31.5815319], [-8.0767101, 31.5801624], [-8.0767173, 31.5800415], [-8.0768774, 31.5773504], [-8.0746522, 31.5764803], [-8.0749527, 31.5733441], [-8.0718628, 31.5699803], [-8.0686034, 31.5727938], [-8.0632061, 31.5707403], [-8.0554872, 31.5693197], [-8.0530447, 31.5718905], [-8.0494368, 31.572266], [-8.0484517, 31.5736451], [-8.0469, 31.5744689], [-8.0465159, 31.5757361], [-8.044038, 31.5771683], [-8.0425461, 31.577968], [-8.0409217, 31.5787997], [-8.0376758, 31.5805437], [-8.0335343, 31.5828926], [-8.0326251, 31.5830844], [-8.0296661, 31.5834481], [-8.0304493, 31.5857559], [-8.0306165, 31.5862592], [-8.0308449, 31.5869463], [-8.0310345, 31.5873575], [-8.0311345, 31.5875742], [-8.0317838, 31.5882239], [-8.0333026, 31.5886388], [-8.0361437, 31.5889115], [-8.0359785, 31.5889578], [-8.0354368, 31.5891634], [-8.0350865, 31.5892822], [-8.0341121, 31.5900606], [-8.0320608, 31.591752], [-8.0318142, 31.5919554], [-8.0293967, 31.5939081], [-8.0270847, 31.5957084], [-8.0256881, 31.5965384], [-8.0253781, 31.5966855], [-8.0240036, 31.5973151], [-8.0221226, 31.5982717], [-8.0200948, 31.599519], [-8.0200446, 31.5995546], [-8.0198799, 31.5994093], [-8.0189921, 31.5981527], [-8.018876, 31.5980475], [-8.0180905, 31.596943], [-8.0172987, 31.5957403], [-8.0166217, 31.5947972], [-8.0077377, 31.5908007], [-8.0075565, 31.5907685], [-8.0047702, 31.5949938], [-8.005093, 31.5952444], [-8.0052325, 31.5953975], [-8.0053559, 31.5955871], [-8.0055061, 31.5958612], [-8.0056375, 31.5961582], [-8.0057856, 31.5966123], [-8.0058977, 31.5970424], [-8.0059272, 31.5972617], [-8.0059605, 31.5976462], [-8.0059594, 31.5980042], [-8.0059433, 31.598308], [-8.0058465, 31.598844], [-8.0057153, 31.5993384], [-8.0056804, 31.5997153], [-8.0056913, 31.5999408], [-8.005748, 31.6001937], [-8.005828, 31.6004555], [-8.005954, 31.6007091], [-8.0060962, 31.6009261], [-8.0062813, 31.6011431], [-8.0065525, 31.6013941], [-8.0068472, 31.6016343], [-8.0072629, 31.601945], [-8.0078239, 31.6023046], [-8.0083761, 31.6026052], [-8.0089635, 31.6029044], [-8.0094785, 31.6032265], [-8.0098406, 31.6035464], [-8.0101088, 31.6038136], [-8.0102396, 31.6039945], [-8.0103609, 31.6041997], [-8.0108661, 31.6051554], [-8.0142243, 31.6100439], [-8.0179308, 31.6156143], [-8.0207484, 31.6200246], [-8.0198159, 31.6204537], [-8.0219061, 31.6242646], [-8.0232794, 31.623849], [-8.0256398, 31.6272337], [-8.0279304, 31.6266856], [-8.0317713, 31.6269414], [-8.0334311, 31.6295787], [-8.036374, 31.6343088], [-8.0383234, 31.6370144], [-8.0394638, 31.6388924], [-8.0400862, 31.6399173], [-8.0405765, 31.6415815], [-8.0406838, 31.6434996], [-8.0395068, 31.647754], [-8.0369716, 31.6557015], [-8.0345039, 31.6633178], [-8.0336027, 31.666039], [-8.0308776, 31.6744214], [-8.0303405, 31.6758244], [-8.0293326, 31.6792058], [-8.0288529, 31.6807376], [-8.0282356, 31.6827086], [-8.0279379, 31.6835882], [-8.0263286, 31.6882443], [-8.0256848, 31.6905996], [-8.0256419, 31.6921881], [-8.0257278, 31.6940504], [-8.0256451, 31.6955274], [-8.0260125, 31.698263], [-8.0267294, 31.6981656], [-8.0272348, 31.6981137], [-8.0278017, 31.6980072], [-8.0281685, 31.697944], [-8.0286617, 31.6976337], [-8.0288816, 31.6975097], [-8.0293911, 31.6974629], [-8.0298954, 31.6974276], [-8.0301959, 31.6975232], [-8.0305821, 31.6976765], [-8.0309431, 31.6979908], [-8.0314272, 31.6982107], [-8.0317301, 31.6982811], [-8.0321002, 31.6983724], [-8.0324263, 31.6982744], [-8.0331581, 31.6981165], [-8.0346956, 31.6975441], [-8.0359768, 31.697341], [-8.0363369, 31.6973838], [-8.036293, 31.6971699], [-8.0364829, 31.6971535], [-8.0368906, 31.6972265], [-8.037191, 31.6971635], [-8.0375129, 31.6972064], [-8.0379206, 31.6973397], [-8.0381781, 31.69763], [-8.0384592, 31.6979248], [-8.0388272, 31.6982407], [-8.0390364, 31.6986396], [-8.0392799, 31.6994602], [-8.0392912, 31.700124], [-8.039487, 31.7006926], [-8.0396565, 31.7008861], [-8.0397928, 31.7010104], [-8.0400395, 31.7009328], [-8.0401887, 31.7009609], [-8.0406844, 31.7011727], [-8.0411015, 31.701288], [-8.0415328, 31.7012951], [-8.0422403, 31.7012488], [-8.0428265, 31.7010956], [-8.0436053, 31.7007038], [-8.0449164, 31.7001593], [-8.0451231, 31.6999924], [-8.0456317, 31.6995817], [-8.0461776, 31.6992141], [-8.0466637, 31.6989132], [-8.0475673, 31.6986148], [-8.0480625, 31.6984755], [-8.048705, 31.698361], [-8.049099, 31.6983042], [-8.0495385, 31.6983216], [-8.0500237, 31.6982209], [-8.0501273, 31.6982053], [-8.0506986, 31.6984565], [-8.0509318, 31.6984534], [-8.051632, 31.6987427], [-8.0519432, 31.6991065], [-8.0522114, 31.6994579], [-8.0524313, 31.6999248], [-8.052249, 31.7003434], [-8.0522892, 31.7006984], [-8.0521577, 31.7010686], [-8.0521524, 31.7012471], [-8.0522409, 31.7014008], [-8.0523492, 31.701483], [-8.0525428, 31.7015219], [-8.0527424, 31.7015055], [-8.0533732, 31.7014376], [-8.0540724, 31.7012631], [-8.0544953, 31.7010992], [-8.0549474, 31.7009781], [-8.0554457, 31.7008961], [-8.0558434, 31.7007537], [-8.0564901, 31.7008317], [-8.0573549, 31.7005414], [-8.0573934, 31.700399], [-8.0577475, 31.7002827], [-8.0583161, 31.7003173], [-8.05852, 31.7003192], [-8.0587764, 31.7003986], [-8.0590349, 31.7004118], [-8.0591959, 31.7004666], [-8.059519, 31.7006664], [-8.0598611, 31.7008947], [-8.0600971, 31.700991], [-8.060419, 31.7011284], [-8.0608095, 31.7011831], [-8.0614178, 31.7009645], [-8.0619743, 31.700881], [-8.0623571, 31.7007612], [-8.0629458, 31.7005075], [-8.0633988, 31.6999322], [-8.063539, 31.6993262], [-8.0637654, 31.6986271], [-8.0640103, 31.6977316], [-8.0641569, 31.6970663], [-8.064512, 31.697059], [-8.064791, 31.6971274], [-8.064968, 31.6972347], [-8.0651021, 31.6973433], [-8.0653596, 31.6974223], [-8.065659, 31.6975435], [-8.0662142, 31.6979537], [-8.0666171, 31.6982432], [-8.0668461, 31.6987057], [-8.0669727, 31.698954], [-8.0670065, 31.6990786], [-8.067162, 31.699337], [-8.0674732, 31.6995871], [-8.0676931, 31.6997254], [-8.0681008, 31.7001311], [-8.0684012, 31.7005177], [-8.0687016, 31.7007016], [-8.0688518, 31.700928], [-8.0689645, 31.7011553], [-8.0691737, 31.7012379], [-8.0694205, 31.701462], [-8.0696243, 31.7016158], [-8.0700481, 31.7020403], [-8.0702734, 31.7025793], [-8.0706167, 31.7033063], [-8.0712175, 31.7037778], [-8.0719079, 31.7037636], [-8.0726144, 31.7038188], [-8.0733633, 31.7036952], [-8.0740285, 31.7033657], [-8.07464, 31.7036849], [-8.074743, 31.7041698], [-8.0751926, 31.7042456], [-8.075906, 31.7042378], [-8.0765122, 31.7042269], [-8.076936, 31.704529], [-8.0775207, 31.7048206], [-8.0778748, 31.7052063], [-8.078261, 31.7054947], [-8.0786687, 31.7056188], [-8.0789852, 31.7056982], [-8.0792856, 31.7055714], [-8.0795646, 31.7052236], [-8.0798542, 31.7047604], [-8.0800946, 31.7042196], [-8.0801815, 31.7038088], [-8.0804175, 31.703482], [-8.0808198, 31.7033816], [-8.0814475, 31.7035336], [-8.0820054, 31.7037038], [-8.0824774, 31.7039991], [-8.0831695, 31.7046864], [-8.0830486, 31.7051744], [-8.0829769, 31.7056225], [-8.0830139, 31.7058762], [-8.0830772, 31.7061774], [-8.0830809, 31.7065038], [-8.0834237, 31.706857], [-8.0828637, 31.707704], [-8.0825912, 31.7079993], [-8.0820928, 31.7084433], [-8.0820944, 31.7089339], [-8.08225, 31.7093114], [-8.08278, 31.7097335], [-8.0834849, 31.7099325], [-8.0839462, 31.7102104], [-8.0844633, 31.7104265], [-8.0849856, 31.7103639], [-8.0854725, 31.7102064], [-8.0856412, 31.7101495], [-8.0859716, 31.7099028], [-8.086291, 31.7094775], [-8.0863484, 31.7086957], [-8.0864203, 31.708437], [-8.0862594, 31.7080965], [-8.0864042, 31.707631], [-8.0865651, 31.7072171], [-8.0868119, 31.7069168], [-8.0872947, 31.706569], [-8.0876595, 31.7064348], [-8.0881069, 31.7062764]]]]}}]}