{"type": "FeatureCollection", "features": [{"type": "Feature", "properties": {"nom": "Souissi", "osm_id": 2799203}, "geometry": {"type": "MultiPolygon", "coordinates": [[[[-6.8721963, 33.9301184], [-6.8514363, 33.9147238], [-6.8392323, 33.9055295], [-6.8292909, 33.8982796], [-6.8271897, 33.8970708], [-6.8260363, 33.8964011], [-6.8237243, 33.8977618], [-6.8210614, 33.9022896], [-6.8136692, 33.9077539], [-6.8078327, 33.911214], [-6.805687, 33.9137582], [-6.8037879, 33.9175778], [-6.8047643, 33.9194835], [-6.8052471, 33.9202358], [-6.8053651, 33.9205296], [-6.8055904, 33.9208577], [-6.8058586, 33.9212824], [-6.8068027, 33.9219986], [-6.8071568, 33.9226667], [-6.8073714, 33.9242345], [-6.8068993, 33.9259081], [-6.8065667, 33.9280144], [-6.8061912, 33.9291107], [-6.8057942, 33.9294298], [-6.8030047, 33.9302519], [-6.8008161, 33.9309761], [-6.8003724, 33.9311737], [-6.8000742, 33.9314078], [-6.7996037, 33.9320959], [-6.7977154, 33.9334917], [-6.7959988, 33.9347415], [-6.7951486, 33.9356343], [-6.794282, 33.9361098], [-6.7946602, 33.9362811], [-6.7949177, 33.9365527], [-6.7951852, 33.9369062], [-6.7952249, 33.9373666], [-6.7947195, 33.9378188], [-6.7939168, 33.938271], [-6.792906, 33.9391342], [-6.7914691, 33.9395864], [-6.7906565, 33.9399317], [-6.79027, 33.9403592], [-6.7902799, 33.9407292], [-6.7899628, 33.9411896], [-6.788952, 33.9420939], [-6.7883475, 33.9434175], [-6.7873763, 33.9447082], [-6.7862764, 33.9452837], [-6.7832043, 33.9466976], [-6.782362, 33.9473882], [-6.7813512, 33.9492789], [-6.7795278, 33.9522629], [-6.777635, 33.9561756], [-6.7769215, 33.9598909], [-6.7756828, 33.9627512], [-6.7745531, 33.9639101], [-6.772809, 33.9666552], [-6.7720657, 33.9671319], [-6.7701965, 33.9675911], [-6.7675178, 33.9700695], [-6.7631048, 33.9737806], [-6.7623461, 33.9749876], [-6.7614635, 33.9781721], [-6.761479, 33.9797257], [-6.7622068, 33.981703], [-6.7636468, 33.9836675], [-6.7656597, 33.9850926], [-6.7667745, 33.9865563], [-6.767301, 33.9879685], [-6.7672806, 33.9890011], [-6.7683346, 33.9890386], [-6.7741683, 33.9892321], [-6.776188, 33.9891342], [-6.7792135, 33.9886138], [-6.7854255, 33.9873639], [-6.7885484, 33.9867486], [-6.7902642, 33.9864121], [-6.7926605, 33.9858085], [-6.7951002, 33.9854291], [-6.7978012, 33.9847864], [-6.7987936, 33.9843994], [-6.7998129, 33.9838746], [-6.8006497, 33.9833363], [-6.8016099, 33.982589], [-6.8046087, 33.9797154], [-6.8058532, 33.9785544], [-6.8065777, 33.9780319], [-6.8077468, 33.9775579], [-6.8088787, 33.9771665], [-6.8097639, 33.9766416], [-6.8104988, 33.9759298], [-6.8110621, 33.9751335], [-6.811238, 33.9749616], [-6.8120545, 33.9741637], [-6.8137174, 33.9726066], [-6.8147206, 33.9717569], [-6.8155306, 33.9712453], [-6.8165606, 33.9706492], [-6.8173706, 33.9699685], [-6.8180948, 33.9690164], [-6.8199563, 33.9662403], [-6.8215602, 33.9641981], [-6.8232127, 33.968485], [-6.8244519, 33.9727959], [-6.8248811, 33.9744597], [-6.8251064, 33.9755541], [-6.8253156, 33.9773558], [-6.8254497, 33.9786102], [-6.8256214, 33.9798068], [-6.8257233, 33.9801627], [-6.8265977, 33.9802116], [-6.8275955, 33.9802873], [-6.8283197, 33.9803762], [-6.8287917, 33.9805141], [-6.8295372, 33.980665], [-6.8292305, 33.9822428], [-6.8288379, 33.9844335], [-6.8282383, 33.9877289], [-6.8278485, 33.9898407], [-6.8276669, 33.9908722], [-6.8275389, 33.99161], [-6.8273653, 33.9925173], [-6.8273257, 33.9933136], [-6.8273204, 33.9935501], [-6.827331, 33.9939882], [-6.8273409, 33.9957672], [-6.8273721, 33.9968358], [-6.8273738, 33.9979155], [-6.8273779, 33.9986316], [-6.8274741, 33.999937], [-6.8274775, 34.0003507], [-6.8274952, 34.0008619], [-6.8274077, 34.001593], [-6.8269701, 34.0035106], [-6.8271347, 34.0034902], [-6.8267482, 34.0050647], [-6.8265553, 34.0054889], [-6.8266144, 34.0058783], [-6.8275566, 34.005374], [-6.8282285, 34.0047718], [-6.8303206, 34.0030997], [-6.8319565, 34.0018163], [-6.8353092, 33.9991568], [-6.8354862, 33.998862], [-6.8376267, 33.9952964], [-6.8387495, 33.9936789], [-6.8395911, 33.9924468], [-6.8420969, 33.9899363], [-6.8455314, 33.9867494], [-6.8468873, 33.9859505], [-6.8475517, 33.9852555], [-6.8486093, 33.9842669], [-6.8527738, 33.9808634], [-6.853092, 33.9807114], [-6.853253, 33.9807742], [-6.8534141, 33.9808482], [-6.8534826, 33.9809186], [-6.85375, 33.9812504], [-6.8538755, 33.9814923], [-6.8543916, 33.9813449], [-6.854924, 33.9809087], [-6.855406, 33.9804459], [-6.8563324, 33.9796441], [-6.8570255, 33.9790894], [-6.8586029, 33.9777953], [-6.8590109, 33.97812], [-6.8594553, 33.9777864], [-6.8596905, 33.9771819], [-6.8598695, 33.976749], [-6.8598896, 33.9758829], [-6.8601304, 33.9756249], [-6.8603881, 33.9755141], [-6.8612425, 33.9751215], [-6.8618588, 33.9756954], [-6.8620581, 33.9760419], [-6.8643426, 33.9737427], [-6.8649158, 33.9726641], [-6.865214, 33.9713917], [-6.8664283, 33.9700061], [-6.8646958, 33.9688759], [-6.8626948, 33.9677821], [-6.8613269, 33.9671014], [-6.8590953, 33.966047], [-6.8577757, 33.9654285], [-6.8557265, 33.9646499], [-6.8550632, 33.9643906], [-6.8541403, 33.9636832], [-6.8533054, 33.9630733], [-6.8532213, 33.9629904], [-6.8522711, 33.961174], [-6.8509146, 33.9585811], [-6.8505402, 33.9577248], [-6.8495303, 33.9536351], [-6.848727, 33.9499563], [-6.8479692, 33.9471249], [-6.8478555, 33.9467861], [-6.8462546, 33.9420134], [-6.8501258, 33.9405962], [-6.8488949, 33.9381137], [-6.8480127, 33.9362365], [-6.8531269, 33.9345842], [-6.8552064, 33.933949], [-6.8565856, 33.9336994], [-6.8588658, 33.9357825], [-6.8643308, 33.935823], [-6.8679577, 33.9330856], [-6.8677634, 33.9330487], [-6.871724, 33.9304413], [-6.8721963, 33.9301184]]]]}}, {"type": "Feature", "properties": {"nom": "El Youssoufia", "osm_id": 2799204}, "geometry": {"type": "MultiPolygon", "coordinates": [[[[-6.8266144, 34.0058783], [-6.8265553, 34.0054889], [-6.8267482, 34.0050647], [-6.8271347, 34.0034902], [-6.8269701, 34.0035106], [-6.8274077, 34.001593], [-6.8274952, 34.0008619], [-6.8274775, 34.0003507], [-6.8274741, 33.999937], [-6.8273779, 33.9986316], [-6.8273738, 33.9979155], [-6.8273721, 33.9968358], [-6.8273409, 33.9957672], [-6.827331, 33.9939882], [-6.8273204, 33.9935501], [-6.8273257, 33.9933136], [-6.8273653, 33.9925173], [-6.8275389, 33.99161], [-6.8276669, 33.9908722], [-6.8278485, 33.9898407], [-6.8282383, 33.9877289], [-6.8288379, 33.9844335], [-6.8292305, 33.9822428], [-6.8295372, 33.980665], [-6.8287917, 33.9805141], [-6.8283197, 33.9803762], [-6.8275955, 33.9802873], [-6.8265977, 33.9802116], [-6.8257233, 33.9801627], [-6.8256214, 33.9798068], [-6.8254497, 33.9786102], [-6.8253156, 33.9773558], [-6.8251064, 33.9755541], [-6.8248811, 33.9744597], [-6.8244519, 33.9727959], [-6.8232127, 33.968485], [-6.8215602, 33.9641981], [-6.8199563, 33.9662403], [-6.8180948, 33.9690164], [-6.8173706, 33.9699685], [-6.8165606, 33.9706492], [-6.8155306, 33.9712453], [-6.8147206, 33.9717569], [-6.8137174, 33.9726066], [-6.8120545, 33.9741637], [-6.811238, 33.9749616], [-6.8110621, 33.9751335], [-6.8104988, 33.9759298], [-6.8097639, 33.9766416], [-6.8088787, 33.9771665], [-6.8077468, 33.9775579], [-6.8065777, 33.9780319], [-6.8058532, 33.9785544], [-6.8046087, 33.9797154], [-6.8016099, 33.982589], [-6.8006497, 33.9833363], [-6.7998129, 33.9838746], [-6.7987936, 33.9843994], [-6.7978012, 33.9847864], [-6.7951002, 33.9854291], [-6.7926605, 33.9858085], [-6.7902642, 33.9864121], [-6.7885484, 33.9867486], [-6.7854255, 33.9873639], [-6.7792135, 33.9886138], [-6.776188, 33.9891342], [-6.7741683, 33.9892321], [-6.7683346, 33.9890386], [-6.7672806, 33.9890011], [-6.7672545, 33.990318], [-6.7679204, 33.9914092], [-6.7691126, 33.9918842], [-6.7710017, 33.99182], [-6.7727359, 33.9923079], [-6.7741914, 33.9934633], [-6.775492, 33.9949653], [-6.7763901, 33.9971862], [-6.7771798, 33.9983415], [-6.7783256, 33.9991374], [-6.7792237, 33.9993941], [-6.7803231, 33.9991888], [-6.781376, 33.9985469], [-6.7847019, 33.9965957], [-6.7870431, 33.9939254], [-6.7878731, 33.9918611], [-6.7890127, 33.9905259], [-6.7900904, 33.9899405], [-6.7912919, 33.9900638], [-6.7925678, 33.9912654], [-6.7941038, 33.9928984], [-6.7958257, 33.9936379], [-6.7971694, 33.9938038], [-6.7981545, 33.9939254], [-6.8005963, 33.993773], [-6.802267, 33.9936687], [-6.8037163, 33.9941], [-6.8045339, 33.9956919], [-6.806169, 33.9980334], [-6.8086253, 34.0003857], [-6.8106449, 34.003624], [-6.81183, 34.0070125], [-6.8118542, 34.009248], [-6.8111891, 34.0111327], [-6.8088551, 34.0139195], [-6.8071378, 34.0167462], [-6.8070763, 34.017722], [-6.8070334, 34.0181464], [-6.8074143, 34.0196753], [-6.8084657, 34.0195232], [-6.8098443, 34.0192964], [-6.8117919, 34.0188901], [-6.8146669, 34.0181537], [-6.8159008, 34.0179448], [-6.817317, 34.0179359], [-6.8175753, 34.0179825], [-6.8178321, 34.0180851], [-6.8180626, 34.0182382], [-6.818237, 34.0186395], [-6.8183467, 34.0190444], [-6.8184741, 34.0193025], [-6.818707, 34.0194925], [-6.8190074, 34.0195992], [-6.8192101, 34.0195945], [-6.8192703, 34.0195969], [-6.8196297, 34.0194102], [-6.8198806, 34.0191366], [-6.8200188, 34.0187356], [-6.8202084, 34.018216], [-6.8204131, 34.0180112], [-6.8206805, 34.0178558], [-6.8215498, 34.0176762], [-6.8224993, 34.017365], [-6.8231919, 34.0170958], [-6.8226286, 34.0167356], [-6.8202951, 34.015519], [-6.8198445, 34.0151073], [-6.8197586, 34.0134639], [-6.8203219, 34.012097], [-6.8214317, 34.0105439], [-6.8229451, 34.0090029], [-6.8246877, 34.0076553], [-6.8260505, 34.0063639], [-6.8266144, 34.0058783]]]]}}, {"type": "Feature", "properties": {"nom": "Agdal-Riyad", "osm_id": 2799211}, "geometry": {"type": "MultiPolygon", "coordinates": [[[[-6.8974292, 33.946524], [-6.8941663, 33.9449576], [-6.8920527, 33.9442615], [-6.8906862, 33.9439696], [-6.8889108, 33.9438343], [-6.8859405, 33.9439564], [-6.8836614, 33.9444896], [-6.8832586, 33.9434362], [-6.8831203, 33.943076], [-6.882579, 33.942084], [-6.8814581, 33.9408804], [-6.8808279, 33.9404032], [-6.880187, 33.9400151], [-6.8798282, 33.9399172], [-6.8797429, 33.9396724], [-6.8795742, 33.9395401], [-6.882087, 33.9373232], [-6.8802878, 33.9360339], [-6.8746758, 33.9317425], [-6.8721963, 33.9301184], [-6.871724, 33.9304413], [-6.8677634, 33.9330487], [-6.8679577, 33.9330856], [-6.8643308, 33.935823], [-6.8588658, 33.9357825], [-6.8565856, 33.9336994], [-6.8552064, 33.933949], [-6.8531269, 33.9345842], [-6.8480127, 33.9362365], [-6.8488949, 33.9381137], [-6.8501258, 33.9405962], [-6.8462546, 33.9420134], [-6.8478555, 33.9467861], [-6.8479692, 33.9471249], [-6.848727, 33.9499563], [-6.8495303, 33.9536351], [-6.8505402, 33.9577248], [-6.8509146, 33.9585811], [-6.8522711, 33.961174], [-6.8532213, 33.9629904], [-6.8533054, 33.9630733], [-6.8541403, 33.9636832], [-6.8550632, 33.9643906], [-6.8557265, 33.9646499], [-6.8577757, 33.9654285], [-6.8590953, 33.966047], [-6.8613269, 33.9671014], [-6.8626948, 33.9677821], [-6.8646958, 33.9688759], [-6.8664283, 33.9700061], [-6.865214, 33.9713917], [-6.8649158, 33.9726641], [-6.8643426, 33.9737427], [-6.8620581, 33.9760419], [-6.8618588, 33.9756954], [-6.8612425, 33.9751215], [-6.8603881, 33.9755141], [-6.8601304, 33.9756249], [-6.8598896, 33.9758829], [-6.8598695, 33.976749], [-6.8596905, 33.9771819], [-6.8594553, 33.9777864], [-6.8590109, 33.97812], [-6.8586029, 33.9777953], [-6.8570255, 33.9790894], [-6.8563324, 33.9796441], [-6.855406, 33.9804459], [-6.854924, 33.9809087], [-6.8543916, 33.9813449], [-6.8538755, 33.9814923], [-6.85375, 33.9812504], [-6.8534826, 33.9809186], [-6.8534141, 33.9808482], [-6.853253, 33.9807742], [-6.853092, 33.9807114], [-6.8527738, 33.9808634], [-6.8486093, 33.9842669], [-6.8475517, 33.9852555], [-6.8468873, 33.9859505], [-6.8455314, 33.9867494], [-6.8420969, 33.9899363], [-6.8395911, 33.9924468], [-6.8387495, 33.9936789], [-6.8376267, 33.9952964], [-6.8354862, 33.998862], [-6.8358455, 33.9989392], [-6.8392682, 33.9990902], [-6.8394176, 33.9990936], [-6.8398788, 33.999104], [-6.8401065, 33.9991091], [-6.8401476, 33.9991598], [-6.8411943, 34.0004496], [-6.8419809, 34.0014188], [-6.842091, 34.0015537], [-6.8423131, 34.0018259], [-6.8422743, 34.0019149], [-6.8421843, 34.0021342], [-6.8421682, 34.0021735], [-6.8421229, 34.0022839], [-6.8420747, 34.0024016], [-6.8420194, 34.0025364], [-6.8419972, 34.0025817], [-6.8419234, 34.0027321], [-6.8418023, 34.0027733], [-6.8413737, 34.0029195], [-6.8412787, 34.0029517], [-6.8411446, 34.0029972], [-6.8407057, 34.0032551], [-6.8408107, 34.0036894], [-6.8372171, 34.0070274], [-6.8358884, 34.0073967], [-6.837215, 34.0117306], [-6.8374076, 34.0128244], [-6.8376602, 34.0130732], [-6.8378598, 34.0136997], [-6.8381041, 34.0144076], [-6.8381647, 34.0146875], [-6.8382573, 34.0150066], [-6.8384225, 34.0155255], [-6.8385403, 34.0159586], [-6.8390623, 34.0164553], [-6.8389088, 34.0171333], [-6.839295, 34.0184272], [-6.8395168, 34.0190622], [-6.8398763, 34.0203342], [-6.8401826, 34.0210965], [-6.8402837, 34.0213384], [-6.8414548, 34.0210661], [-6.8420756, 34.0204614], [-6.8423953, 34.0200702], [-6.8424819, 34.0199637], [-6.8439237, 34.0185315], [-6.8457946, 34.0163753], [-6.8475756, 34.0143254], [-6.8484607, 34.0133472], [-6.8489382, 34.0129559], [-6.8512878, 34.0117242], [-6.8515614, 34.0115241], [-6.854383, 34.0083491], [-6.8574476, 34.0049823], [-6.8577596, 34.0046396], [-6.857924, 34.004459], [-6.858224, 34.0040666], [-6.8588542, 34.0034778], [-6.8589271, 34.003351], [-6.858995, 34.0031884], [-6.8591502, 34.0028168], [-6.8615875, 33.9979161], [-6.8627382, 33.9958056], [-6.864904, 33.9927365], [-6.8651019, 33.992366], [-6.8651786, 33.9920749], [-6.8655704, 33.9914235], [-6.866082, 33.9909366], [-6.868115, 33.9882319], [-6.8725234, 33.9823682], [-6.8751855, 33.9787822], [-6.8777429, 33.9755974], [-6.8784971, 33.9745869], [-6.8783964, 33.9740636], [-6.8782068, 33.9735743], [-6.8784016, 33.9728133], [-6.8789945, 33.9722517], [-6.8799601, 33.9710482], [-6.8808333, 33.9708028], [-6.8811724, 33.9705111], [-6.8813711, 33.9694935], [-6.8817914, 33.9687642], [-6.8824986, 33.9679923], [-6.8829448, 33.9663282], [-6.8835846, 33.9648952], [-6.8856727, 33.9612476], [-6.8868366, 33.9590956], [-6.8873278, 33.9584556], [-6.8887808, 33.9567491], [-6.8896916, 33.9556619], [-6.8927811, 33.9519894], [-6.8961351, 33.9478764], [-6.8970644, 33.9469534], [-6.8974292, 33.946524]]]]}}, {"type": "Feature", "properties": {"nom": "Yacoub El Mansour", "osm_id": 2799212}, "geometry": {"type": "MultiPolygon", "coordinates": [[[[-6.9256729, 33.9422068], [-6.9250399, 33.9416734], [-6.9222236, 33.9393861], [-6.9217837, 33.9391503], [-6.9215155, 33.9392544], [-6.9210434, 33.9393514], [-6.9205391, 33.9393701], [-6.9193482, 33.9393247], [-6.918447, 33.9393514], [-6.9180393, 33.9395388], [-6.9175994, 33.939752], [-6.917181, 33.9397324], [-6.9165909, 33.9396509], [-6.9156253, 33.9399006], [-6.9144022, 33.940966], [-6.9131255, 33.9420666], [-6.91275, 33.9423773], [-6.9121385, 33.9427471], [-6.9119024, 33.9432989], [-6.9114089, 33.9437898], [-6.9109476, 33.9442102], [-6.9105935, 33.9439732], [-6.9100946, 33.9444288], [-6.9095236, 33.9448834], [-6.9091856, 33.9453023], [-6.9088557, 33.9456281], [-6.9083539, 33.9453958], [-6.9076219, 33.9448655], [-6.9072598, 33.9447212], [-6.9068226, 33.9447168], [-6.9067368, 33.9450833], [-6.9063613, 33.9452459], [-6.9059562, 33.945266], [-6.9056212, 33.945438], [-6.9053342, 33.9456821], [-6.9049292, 33.9460963], [-6.9043713, 33.9469192], [-6.9037866, 33.9469224], [-6.9031616, 33.9467627], [-6.9023865, 33.9467507], [-6.9020861, 33.9468395], [-6.9018447, 33.9466203], [-6.9014123, 33.9464795], [-6.9003582, 33.9459032], [-6.8995106, 33.9456451], [-6.8988776, 33.9455027], [-6.8985933, 33.9453914], [-6.8982098, 33.9456918], [-6.8979093, 33.9459721], [-6.8974292, 33.946524], [-6.8970644, 33.9469534], [-6.8961351, 33.9478764], [-6.8927811, 33.9519894], [-6.8896916, 33.9556619], [-6.8887808, 33.9567491], [-6.8873278, 33.9584556], [-6.8868366, 33.9590956], [-6.8856727, 33.9612476], [-6.8835846, 33.9648952], [-6.8829448, 33.9663282], [-6.8824986, 33.9679923], [-6.8817914, 33.9687642], [-6.8813711, 33.9694935], [-6.8811724, 33.9705111], [-6.8808333, 33.9708028], [-6.8799601, 33.9710482], [-6.8789945, 33.9722517], [-6.8784016, 33.9728133], [-6.8782068, 33.9735743], [-6.8783964, 33.9740636], [-6.8784971, 33.9745869], [-6.8777429, 33.9755974], [-6.8751855, 33.9787822], [-6.8725234, 33.9823682], [-6.868115, 33.9882319], [-6.866082, 33.9909366], [-6.8655704, 33.9914235], [-6.8651786, 33.9920749], [-6.8651019, 33.992366], [-6.864904, 33.9927365], [-6.8627382, 33.9958056], [-6.8615875, 33.9979161], [-6.8591502, 34.0028168], [-6.8599781, 34.0033017], [-6.8625423, 34.0050872], [-6.8652755, 34.0068994], [-6.8669304, 34.00804], [-6.8684426, 34.0088671], [-6.8688422, 34.0083869], [-6.8690568, 34.0081934], [-6.869309, 34.0080311], [-6.8697649, 34.0075887], [-6.8703497, 34.0070017], [-6.8707681, 34.0064992], [-6.8713582, 34.00609], [-6.8718785, 34.0056542], [-6.8721682, 34.0053251], [-6.872474, 34.0048893], [-6.8726027, 34.0046403], [-6.8728441, 34.0042223], [-6.8731767, 34.0037331], [-6.8734449, 34.0034663], [-6.8736488, 34.0033684], [-6.8739009, 34.0031283], [-6.8740618, 34.0029904], [-6.8740994, 34.0028792], [-6.8745017, 34.0024746], [-6.8747324, 34.00223], [-6.8749309, 34.0020476], [-6.8750918, 34.0018564], [-6.875191, 34.0017586], [-6.8753104, 34.0017096], [-6.8754458, 34.0016418], [-6.8755464, 34.0016007], [-6.8756188, 34.0015718], [-6.8756765, 34.0015351], [-6.8757208, 34.0014962], [-6.8757784, 34.0014361], [-6.8758227, 34.0013772], [-6.8758804, 34.001296], [-6.8759608, 34.0011982], [-6.876052, 34.0010915], [-6.8761593, 34.0009136], [-6.8764463, 34.0006312], [-6.8774602, 33.9998507], [-6.8778491, 33.9996572], [-6.8781442, 33.9996105], [-6.8787369, 33.9994927], [-6.878812, 33.9994549], [-6.8788147, 33.9993815], [-6.8787557, 33.9992547], [-6.8786699, 33.9991213], [-6.8787128, 33.9988812], [-6.8789193, 33.9983319], [-6.8793029, 33.997945], [-6.8798232, 33.9976604], [-6.8801343, 33.9975403], [-6.8802846, 33.9973312], [-6.8803436, 33.9970488], [-6.88088, 33.9965062], [-6.8816096, 33.9962038], [-6.8819368, 33.9959325], [-6.8821943, 33.9956835], [-6.8823499, 33.9950652], [-6.8828648, 33.9940868], [-6.8838519, 33.9930638], [-6.8852949, 33.9921209], [-6.8860406, 33.991903], [-6.8866307, 33.9918763], [-6.8872368, 33.9920942], [-6.8873549, 33.9921921], [-6.8873817, 33.9923366], [-6.887328, 33.9925168], [-6.8873736, 33.9925701], [-6.8875339, 33.9925546], [-6.8880414, 33.992199], [-6.8882132, 33.9918829], [-6.88824, 33.9915494], [-6.8880791, 33.9912981], [-6.8879718, 33.991138], [-6.8879503, 33.9909467], [-6.888033, 33.9905964], [-6.8881177, 33.9905291], [-6.8881438, 33.9904917], [-6.8881238, 33.9904468], [-6.8881711, 33.9903958], [-6.8884489, 33.9900547], [-6.8887777, 33.989651], [-6.8890983, 33.9892298], [-6.8893424, 33.9891186], [-6.8894872, 33.9889785], [-6.8897125, 33.9885293], [-6.88986, 33.9884337], [-6.8903455, 33.9883403], [-6.8906057, 33.9882135], [-6.8918717, 33.9867968], [-6.8931323, 33.9854713], [-6.8941462, 33.9849865], [-6.8947497, 33.9848997], [-6.8949133, 33.9847463], [-6.8950716, 33.984595], [-6.8952218, 33.9843926], [-6.8952808, 33.984148], [-6.8951252, 33.9838211], [-6.8950501, 33.9836231], [-6.8950743, 33.9835742], [-6.8953076, 33.9835097], [-6.8954632, 33.9834563], [-6.8956107, 33.9834207], [-6.8957582, 33.9833629], [-6.895828, 33.9832917], [-6.8958145, 33.9831472], [-6.8957394, 33.9829559], [-6.8957931, 33.9828469], [-6.8959862, 33.9827513], [-6.8965146, 33.9826912], [-6.896697, 33.9826156], [-6.8974212, 33.9817104], [-6.8980488, 33.9813901], [-6.8988696, 33.9807851], [-6.8994114, 33.9801246], [-6.9000337, 33.979613], [-6.9001624, 33.979266], [-6.9002858, 33.9790948], [-6.9004709, 33.9790525], [-6.9005647, 33.9790058], [-6.9007874, 33.9785276], [-6.9009885, 33.9783897], [-6.9012782, 33.9784119], [-6.901415, 33.9784564], [-6.9014981, 33.978432], [-6.9015223, 33.9783296], [-6.9015196, 33.9781206], [-6.9016027, 33.9779382], [-6.9016994, 33.977892], [-6.9018495, 33.9778203], [-6.9020104, 33.9778069], [-6.9021821, 33.9778136], [-6.9022679, 33.9777714], [-6.9024798, 33.9772754], [-6.9025978, 33.9771463], [-6.9033489, 33.9766147], [-6.9035313, 33.9765035], [-6.9035554, 33.9763901], [-6.903483, 33.9761499], [-6.90355, 33.9760008], [-6.9036976, 33.9759831], [-6.903943, 33.9760654], [-6.904069, 33.9760464], [-6.9054678, 33.9750844], [-6.9071227, 33.973692], [-6.9080427, 33.9726577], [-6.9081876, 33.972522], [-6.9082439, 33.9724553], [-6.9082278, 33.972373], [-6.9080696, 33.9722662], [-6.9079864, 33.9721572], [-6.9079703, 33.972066], [-6.9080052, 33.9719859], [-6.9081581, 33.9719214], [-6.9083083, 33.9718858], [-6.9084531, 33.9718925], [-6.9086382, 33.9719526], [-6.9087267, 33.9719459], [-6.9092149, 33.9714854], [-6.9093624, 33.971392], [-6.9094375, 33.9713275], [-6.9095635, 33.9710873], [-6.9096199, 33.9708404], [-6.909762, 33.9706646], [-6.90999, 33.9706424], [-6.9100463, 33.9705801], [-6.9100544, 33.9703821], [-6.9100758, 33.9702131], [-6.9102341, 33.9699684], [-6.9104433, 33.9697704], [-6.9107357, 33.9697237], [-6.9108456, 33.9696792], [-6.9110173, 33.9694301], [-6.9111085, 33.9689941], [-6.9111997, 33.9685114], [-6.9112989, 33.9681844], [-6.9114786, 33.9679708], [-6.9117227, 33.9677684], [-6.912058, 33.9676616], [-6.9123825, 33.9676438], [-6.9125623, 33.9675037], [-6.9126618, 33.9671183], [-6.9125247, 33.9669719], [-6.9122028, 33.9666294], [-6.9121009, 33.9662645], [-6.9130772, 33.9650722], [-6.9151586, 33.9633281], [-6.9170845, 33.9617397], [-6.917578, 33.9611998], [-6.9194824, 33.9588696], [-6.9228035, 33.9548201], [-6.9253536, 33.9517332], [-6.9254186, 33.9516545], [-6.9269925, 33.949894], [-6.9305776, 33.946396], [-6.9303131, 33.9460044], [-6.9292831, 33.9451019], [-6.9256729, 33.9422068]]]]}}, {"type": "Feature", "properties": {"nom": "Tabriquet", "osm_id": 2801014}, "geometry": {"type": "MultiPolygon", "coordinates": [[[[-6.816684, 34.0351009], [-6.8164179, 34.0352383], [-6.815738, 34.0354561], [-6.8150178, 34.035557], [-6.8143612, 34.035555], [-6.8138275, 34.0355421], [-6.813122, 34.0354683], [-6.8129135, 34.0354929], [-6.8121352, 34.0353417], [-6.8120888, 34.0353305], [-6.8106063, 34.0349371], [-6.8099664, 34.0349466], [-6.8097104, 34.0349505], [-6.8057032, 34.0350127], [-6.8029191, 34.0358484], [-6.8020983, 34.0362974], [-6.800031, 34.0381764], [-6.7989082, 34.0391127], [-6.7986243, 34.0393654], [-6.7966894, 34.0407689], [-6.7958322, 34.0420115], [-6.7958139, 34.042038], [-6.7951688, 34.042973], [-6.7936585, 34.0452183], [-6.7927617, 34.0465537], [-6.7922974, 34.0471973], [-6.7921034, 34.0471528], [-6.7904952, 34.046357], [-6.7893991, 34.0459785], [-6.7892182, 34.0459156], [-6.788101, 34.0462174], [-6.7859514, 34.046699], [-6.7842348, 34.0470946], [-6.7838644, 34.0471927], [-6.7830654, 34.0472813], [-6.7804046, 34.0471213], [-6.7769285, 34.0468235], [-6.7741015, 34.0467426], [-6.774112, 34.0471726], [-6.7740605, 34.0478778], [-6.7739658, 34.0487943], [-6.7738477, 34.0504589], [-6.7736077, 34.0514066], [-6.7735302, 34.0522329], [-6.7734602, 34.052966], [-6.7731182, 34.0537094], [-6.772909, 34.0542309], [-6.7760166, 34.0567385], [-6.7773073, 34.0575249], [-6.7783499, 34.058162], [-6.7780387, 34.0585184], [-6.7775559, 34.0588628], [-6.7777975, 34.0596148], [-6.7782106, 34.0612263], [-6.7783698, 34.0618242], [-6.7784536, 34.0621388], [-6.7787132, 34.0630541], [-6.7803138, 34.0641628], [-6.7770013, 34.0690995], [-6.7761827, 34.0697354], [-6.7763747, 34.0700828], [-6.7773414, 34.0708751], [-6.7789721, 34.0696909], [-6.7795054, 34.0702299], [-6.7800341, 34.0711979], [-6.7839852, 34.0739509], [-6.7850448, 34.0730218], [-6.789508, 34.0688804], [-6.7932576, 34.0653938], [-6.7971899, 34.0618146], [-6.8010828, 34.0575167], [-6.8059232, 34.0523571], [-6.8088736, 34.0489081], [-6.8104915, 34.0463713], [-6.8117811, 34.0450855], [-6.8129489, 34.0435427], [-6.8140755, 34.0410623], [-6.8151607, 34.0399737], [-6.8156864, 34.0391113], [-6.8160515, 34.0379789], [-6.8161477, 34.0371287], [-6.816684, 34.0351009]]]]}}, {"type": "Feature", "properties": {"nom": "Hssaine", "osm_id": 2801015}, "geometry": {"type": "MultiPolygon", "coordinates": [[[[-6.7971694, 33.9938038], [-6.7958257, 33.9936379], [-6.7941038, 33.9928984], [-6.7925678, 33.9912654], [-6.7912919, 33.9900638], [-6.7900904, 33.9899405], [-6.7890127, 33.9905259], [-6.7878731, 33.9918611], [-6.7870431, 33.9939254], [-6.7847019, 33.9965957], [-6.781376, 33.9985469], [-6.7803231, 33.9991888], [-6.7792237, 33.9993941], [-6.7783256, 33.9991374], [-6.7771798, 33.9983415], [-6.7763901, 33.9971862], [-6.775492, 33.9949653], [-6.7741914, 33.9934633], [-6.7727359, 33.9923079], [-6.7710017, 33.99182], [-6.7691126, 33.9918842], [-6.7679204, 33.9914092], [-6.7672545, 33.990318], [-6.7672806, 33.9890011], [-6.767301, 33.9879685], [-6.7667745, 33.9865563], [-6.7656597, 33.9850926], [-6.7636468, 33.9836675], [-6.7622068, 33.981703], [-6.761479, 33.9797257], [-6.7614635, 33.9781721], [-6.7623461, 33.9749876], [-6.7631048, 33.9737806], [-6.7675178, 33.9700695], [-6.7701965, 33.9675911], [-6.7720657, 33.9671319], [-6.772809, 33.9666552], [-6.7745531, 33.9639101], [-6.7756828, 33.9627512], [-6.7769215, 33.9598909], [-6.777635, 33.9561756], [-6.7795278, 33.9522629], [-6.7813512, 33.9492789], [-6.782362, 33.9473882], [-6.7832043, 33.9466976], [-6.7862764, 33.9452837], [-6.7873763, 33.9447082], [-6.7883475, 33.9434175], [-6.788952, 33.9420939], [-6.7899628, 33.9411896], [-6.7902799, 33.9407292], [-6.79027, 33.9403592], [-6.7906565, 33.9399317], [-6.7914691, 33.9395864], [-6.792906, 33.9391342], [-6.7939168, 33.938271], [-6.7947195, 33.9378188], [-6.7952249, 33.9373666], [-6.7951852, 33.9369062], [-6.7949177, 33.9365527], [-6.7946602, 33.9362811], [-6.794282, 33.9361098], [-6.7938639, 33.936057], [-6.7925932, 33.9357439], [-6.7900182, 33.9351743], [-6.7877008, 33.9350318], [-6.7864134, 33.934747], [-6.7844494, 33.9344898], [-6.7834544, 33.9344851], [-6.7824349, 33.934903], [-6.7817938, 33.9354622], [-6.7813805, 33.9363219], [-6.7809202, 33.9371681], [-6.7799761, 33.9375954], [-6.7786028, 33.9379514], [-6.7775728, 33.9379514], [-6.7761995, 33.9379514], [-6.7748262, 33.9378802], [-6.7730096, 33.9377795], [-6.7721685, 33.9369517], [-6.7716505, 33.9361], [-6.7715646, 33.935103], [-6.7707063, 33.9346046], [-6.7695905, 33.9343909], [-6.7685606, 33.9341773], [-6.7675306, 33.9343197], [-6.7662431, 33.9345334], [-6.7649557, 33.9356015], [-6.763602, 33.9368059], [-6.7617799, 33.9383075], [-6.7606641, 33.9393756], [-6.75972, 33.9402301], [-6.75831, 33.9410897], [-6.7570593, 33.9418678], [-6.7560988, 33.9424702], [-6.7555624, 33.9423456], [-6.7552405, 33.9420964], [-6.7542128, 33.9420719], [-6.7526886, 33.9434484], [-6.749897, 33.9414529], [-6.7470388, 33.9427311], [-6.7453051, 33.9444168], [-6.7448759, 33.9474999], [-6.7452621, 33.948518], [-6.7450004, 33.950864], [-6.744318, 33.9509833], [-6.7458866, 33.952943], [-6.7441635, 33.9544897], [-6.7424362, 33.9558193], [-6.7397257, 33.9577779], [-6.7380091, 33.9593798], [-6.732237, 33.9649681], [-6.7302414, 33.9689188], [-6.7251774, 33.9743107], [-6.7257357, 33.9746266], [-6.725564, 33.9751693], [-6.7286968, 33.9767566], [-6.7284393, 33.9776409], [-6.7197297, 33.9839273], [-6.7190623, 33.9855873], [-6.7084837, 33.9946698], [-6.718955, 33.9965146], [-6.7181418, 33.9978862], [-6.7190409, 33.9994784], [-6.7186975, 34.0000423], [-6.7189615, 34.0007948], [-6.7155056, 34.0043336], [-6.7129682, 34.0069707], [-6.7113696, 34.008656], [-6.7105864, 34.0096077], [-6.7097174, 34.0109639], [-6.7090683, 34.0123735], [-6.7085606, 34.0127686], [-6.7067367, 34.0146095], [-6.7035609, 34.0182778], [-6.7013401, 34.0207633], [-6.6979068, 34.0243824], [-6.6943556, 34.0283349], [-6.6923117, 34.0305977], [-6.6912335, 34.0316425], [-6.6909335, 34.0319461], [-6.6908759, 34.0320315], [-6.6907424, 34.0321444], [-6.6909336, 34.0321295], [-6.6953035, 34.0311097], [-6.698892, 34.0301449], [-6.7022394, 34.0291847], [-6.7067187, 34.0279487], [-6.7080222, 34.0275975], [-6.7110907, 34.0267483], [-6.7141377, 34.0259303], [-6.7171954, 34.0251033], [-6.7190874, 34.0247527], [-6.7191867, 34.0247526], [-6.7208757, 34.0248275], [-6.7222849, 34.0253072], [-6.7241395, 34.0265378], [-6.7245771, 34.0268282], [-6.7260953, 34.0277974], [-6.7274203, 34.0282509], [-6.7313309, 34.0286688], [-6.7352952, 34.0290467], [-6.7416252, 34.0296424], [-6.745611, 34.0300203], [-6.7502459, 34.0305004], [-6.7628828, 34.0317759], [-6.7636757, 34.0317786], [-6.7703447, 34.0324916], [-6.7753146, 34.0330506], [-6.7756477, 34.0331536], [-6.7757364, 34.0328585], [-6.7759356, 34.0321364], [-6.7756221, 34.0309676], [-6.7755645, 34.0304831], [-6.7755266, 34.0303198], [-6.7754097, 34.0295268], [-6.7754551, 34.0293024], [-6.7752273, 34.0280952], [-6.7757959, 34.0256411], [-6.7770083, 34.0232758], [-6.778639, 34.0195143], [-6.7806561, 34.0164197], [-6.7833705, 34.0141697], [-6.7855806, 34.0125601], [-6.7870177, 34.0107685], [-6.7890562, 34.008554], [-6.7910732, 34.0059214], [-6.7928649, 34.0036534], [-6.7948289, 34.0005982], [-6.7964913, 33.996769], [-6.7971694, 33.9938038]]]]}}, {"type": "Feature", "properties": {"nom": "Bettana", "osm_id": 2801016}, "geometry": {"type": "MultiPolygon", "coordinates": [[[[-6.816684, 34.0351009], [-6.816684, 34.0345532], [-6.8165123, 34.0338362], [-6.8160939, 34.032212], [-6.8155897, 34.0308434], [-6.8153644, 34.0303906], [-6.8151283, 34.0300478], [-6.8145651, 34.0294123], [-6.8140179, 34.0289864], [-6.8117917, 34.0276638], [-6.8094206, 34.0263945], [-6.8061912, 34.0253339], [-6.80448, 34.0247639], [-6.8026721, 34.0240801], [-6.8012774, 34.0230393], [-6.8008053, 34.0220778], [-6.8006444, 34.0213506], [-6.8008536, 34.0201515], [-6.8014866, 34.0191531], [-6.802302, 34.0184872], [-6.8032998, 34.0179817], [-6.8047965, 34.0177896], [-6.8070334, 34.0181464], [-6.8070763, 34.017722], [-6.8071378, 34.0167462], [-6.8088551, 34.0139195], [-6.8111891, 34.0111327], [-6.8118542, 34.009248], [-6.81183, 34.0070125], [-6.8106449, 34.003624], [-6.8086253, 34.0003857], [-6.806169, 33.9980334], [-6.8045339, 33.9956919], [-6.8037163, 33.9941], [-6.802267, 33.9936687], [-6.8005963, 33.993773], [-6.7981545, 33.9939254], [-6.7971694, 33.9938038], [-6.7964913, 33.996769], [-6.7948289, 34.0005982], [-6.7928649, 34.0036534], [-6.7910732, 34.0059214], [-6.7890562, 34.008554], [-6.7870177, 34.0107685], [-6.7855806, 34.0125601], [-6.7833705, 34.0141697], [-6.7806561, 34.0164197], [-6.778639, 34.0195143], [-6.7770083, 34.0232758], [-6.7757959, 34.0256411], [-6.7752273, 34.0280952], [-6.7754551, 34.0293024], [-6.7754097, 34.0295268], [-6.7755266, 34.0303198], [-6.7755645, 34.0304831], [-6.7756221, 34.0309676], [-6.7759356, 34.0321364], [-6.7757364, 34.0328585], [-6.7756477, 34.0331536], [-6.7757257, 34.0339448], [-6.7752816, 34.0381911], [-6.7748524, 34.0419918], [-6.7745574, 34.0435298], [-6.7741015, 34.0467426], [-6.7769285, 34.0468235], [-6.7804046, 34.0471213], [-6.7830654, 34.0472813], [-6.7838644, 34.0471927], [-6.7842348, 34.0470946], [-6.7859514, 34.046699], [-6.788101, 34.0462174], [-6.7892182, 34.0459156], [-6.7893991, 34.0459785], [-6.7904952, 34.046357], [-6.7921034, 34.0471528], [-6.7922974, 34.0471973], [-6.7927617, 34.0465537], [-6.7936585, 34.0452183], [-6.7951688, 34.042973], [-6.7958139, 34.042038], [-6.7958322, 34.0420115], [-6.7966894, 34.0407689], [-6.7986243, 34.0393654], [-6.7989082, 34.0391127], [-6.800031, 34.0381764], [-6.8020983, 34.0362974], [-6.8029191, 34.0358484], [-6.8057032, 34.0350127], [-6.8097104, 34.0349505], [-6.8099664, 34.0349466], [-6.8106063, 34.0349371], [-6.8120888, 34.0353305], [-6.8121352, 34.0353417], [-6.8129135, 34.0354929], [-6.813122, 34.0354683], [-6.8138275, 34.0355421], [-6.8143612, 34.035555], [-6.8150178, 34.035557], [-6.815738, 34.0354561], [-6.8164179, 34.0352383], [-6.816684, 34.0351009]]]]}}, {"type": "Feature", "properties": {"nom": "Bab Lamrissa", "osm_id": 2801017}, "geometry": {"type": "MultiPolygon", "coordinates": [[[[-6.8383307, 34.0394351], [-6.8368091, 34.0392972], [-6.8367508, 34.0392878], [-6.8366946, 34.0392614], [-6.8366611, 34.0392133], [-6.8366343, 34.0390625], [-6.8366318, 34.0389059], [-6.8366665, 34.0387172], [-6.8367387, 34.0385173], [-6.8367361, 34.0384823], [-6.8367211, 34.0384431], [-6.8366858, 34.038405], [-6.8366333, 34.0383813], [-6.836579, 34.0383758], [-6.8365297, 34.0383813], [-6.8364819, 34.038409], [-6.8364376, 34.0384683], [-6.8361059, 34.0392236], [-6.8360791, 34.03925], [-6.8360339, 34.0392585], [-6.8341777, 34.0390493], [-6.8339078, 34.039038], [-6.8338246, 34.0390769], [-6.8337545, 34.0391315], [-6.8336758, 34.0392136], [-6.8336402, 34.0392832], [-6.8335953, 34.039397], [-6.8335717, 34.0395151], [-6.8335618, 34.0396437], [-6.8335706, 34.0398023], [-6.8336331, 34.0400018], [-6.8336906, 34.0402805], [-6.8336982, 34.0405158], [-6.8336735, 34.0407182], [-6.8336141, 34.0409273], [-6.8335412, 34.0410838], [-6.8334632, 34.0412304], [-6.833429, 34.0412139], [-6.833429, 34.0411373], [-6.8334137, 34.041065], [-6.8333901, 34.0409984], [-6.8333687, 34.0409506], [-6.8332818, 34.0407804], [-6.8332296, 34.0406541], [-6.8331941, 34.0405502], [-6.8331585, 34.0404728], [-6.8330951, 34.0403571], [-6.8330716, 34.0403099], [-6.833047, 34.0402479], [-6.8329322, 34.0396736], [-6.8329275, 34.0395026], [-6.8329499, 34.0393202], [-6.8330212, 34.0390667], [-6.833079, 34.0389591], [-6.8331588, 34.038868], [-6.8332359, 34.038798], [-6.8333151, 34.0387547], [-6.8334237, 34.0387257], [-6.8335404, 34.038718], [-6.8357075, 34.0388921], [-6.8357456, 34.0388854], [-6.8357672, 34.0388713], [-6.8357813, 34.0388504], [-6.8357845, 34.0388262], [-6.8357709, 34.0387965], [-6.8357502, 34.0387806], [-6.8357264, 34.0387728], [-6.8337277, 34.0386229], [-6.8335673, 34.0386113], [-6.8334813, 34.0386091], [-6.8333996, 34.0386135], [-6.833311, 34.0386468], [-6.8332007, 34.0386922], [-6.8331709, 34.0386568], [-6.8331447, 34.0386113], [-6.8331192, 34.0385346], [-6.8331045, 34.0384468], [-6.8330804, 34.0381334], [-6.8330562, 34.0377444], [-6.8330374, 34.0375466], [-6.8330321, 34.0373355], [-6.8330562, 34.0368065], [-6.8331635, 34.0364286], [-6.8333352, 34.0361263], [-6.8335253, 34.0358089], [-6.8336396, 34.0356708], [-6.8337616, 34.0355706], [-6.8339124, 34.0354774], [-6.8341951, 34.0353769], [-6.8345172, 34.0357986], [-6.834738, 34.0360663], [-6.8349713, 34.0363064], [-6.8354826, 34.0367538], [-6.8355145, 34.0367568], [-6.8355418, 34.0367473], [-6.8355554, 34.0367248], [-6.8355561, 34.0367007], [-6.8349482, 34.0361478], [-6.8346389, 34.0358024], [-6.834404, 34.0354895], [-6.8341063, 34.0350434], [-6.8339472, 34.0347677], [-6.8337504, 34.034371], [-6.8335991, 34.0339659], [-6.8335041, 34.0336702], [-6.8334268, 34.0333758], [-6.8333383, 34.0329479], [-6.8332809, 34.032416], [-6.8332735, 34.0323993], [-6.8332618, 34.0323875], [-6.8332351, 34.032377], [-6.8332036, 34.032375], [-6.8331615, 34.0323858], [-6.8331504, 34.0323965], [-6.8331442, 34.0324117], [-6.8331424, 34.0324341], [-6.8331434, 34.0324595], [-6.8331903, 34.0329767], [-6.8327826, 34.0329545], [-6.8325305, 34.0329167], [-6.8322837, 34.0328367], [-6.8320262, 34.0326922], [-6.8318063, 34.0325477], [-6.8315971, 34.0323899], [-6.8314862, 34.0322702], [-6.8313545, 34.0321348], [-6.8312565, 34.0320164], [-6.831184, 34.0317653], [-6.8311062, 34.0314496], [-6.8312786, 34.0313445], [-6.8329265, 34.0310616], [-6.8329663, 34.0310471], [-6.8329977, 34.0310222], [-6.833017, 34.0309899], [-6.8330218, 34.0309542], [-6.8330116, 34.0309192], [-6.8329876, 34.0308892], [-6.8329527, 34.0308678], [-6.832911, 34.0308575], [-6.8328677, 34.0308596], [-6.8315254, 34.031136], [-6.8314067, 34.0306405], [-6.8313798, 34.0305627], [-6.8313316, 34.0304782], [-6.8311626, 34.0302759], [-6.8311036, 34.0301737], [-6.8310631, 34.0300606], [-6.8309531, 34.0292971], [-6.8306033, 34.0291873], [-6.8305115, 34.0291384], [-6.8301982, 34.028966], [-6.8302189, 34.0289428], [-6.8302266, 34.0289256], [-6.8302323, 34.02891], [-6.8302295, 34.02888], [-6.8302115, 34.02886], [-6.8301903, 34.0288489], [-6.8301673, 34.0288445], [-6.8301447, 34.0288428], [-6.8301209, 34.0288493], [-6.8298923, 34.0290756], [-6.8292538, 34.0288266], [-6.8287705, 34.0286874], [-6.8285503, 34.0286467], [-6.828375, 34.0286246], [-6.8280981, 34.0286171], [-6.828105, 34.0285771], [-6.8276578, 34.0284764], [-6.82753, 34.0284476], [-6.8275358, 34.0284299], [-6.8275405, 34.0284156], [-6.8275412, 34.0283944], [-6.8275191, 34.0283582], [-6.8275004, 34.0283407], [-6.8274681, 34.0283339], [-6.8274353, 34.0283341], [-6.8273851, 34.0283967], [-6.8273466, 34.0284807], [-6.8270686, 34.0284487], [-6.8270576, 34.0284503], [-6.8270467, 34.0284549], [-6.8269564, 34.0285639], [-6.8269461, 34.0285698], [-6.826934, 34.0285729], [-6.8269247, 34.0285732], [-6.8269128, 34.028571], [-6.8269014, 34.0285656], [-6.8268922, 34.0285571], [-6.8268266, 34.0283658], [-6.8268134, 34.0283354], [-6.8267912, 34.0283059], [-6.8267538, 34.0282857], [-6.8260809, 34.0281583], [-6.825413, 34.0280761], [-6.8243693, 34.0280467], [-6.8239428, 34.0281271], [-6.8239488, 34.0280364], [-6.8239304, 34.0279885], [-6.8239052, 34.0279572], [-6.8238719, 34.0279377], [-6.8238329, 34.027924], [-6.8237939, 34.0279135], [-6.8239629, 34.0273702], [-6.821006, 34.0271783], [-6.8165827, 34.0274611], [-6.8151678, 34.0272206], [-6.8119452, 34.02614], [-6.8109867, 34.0257386], [-6.8102273, 34.0251991], [-6.8086616, 34.0238529], [-6.8072467, 34.0211065], [-6.8070334, 34.0181464], [-6.8047965, 34.0177896], [-6.8032998, 34.0179817], [-6.802302, 34.0184872], [-6.8014866, 34.0191531], [-6.8008536, 34.0201515], [-6.8006444, 34.0213506], [-6.8008053, 34.0220778], [-6.8012774, 34.0230393], [-6.8026721, 34.0240801], [-6.80448, 34.0247639], [-6.8061912, 34.0253339], [-6.8094206, 34.0263945], [-6.8117917, 34.0276638], [-6.8140179, 34.0289864], [-6.8145651, 34.0294123], [-6.8151283, 34.0300478], [-6.8153644, 34.0303906], [-6.8155897, 34.0308434], [-6.8160939, 34.032212], [-6.8165123, 34.0338362], [-6.816684, 34.0345532], [-6.816684, 34.0351009], [-6.8161477, 34.0371287], [-6.8160515, 34.0379789], [-6.8156864, 34.0391113], [-6.8151607, 34.0399737], [-6.8140755, 34.0410623], [-6.8129489, 34.0435427], [-6.8117811, 34.0450855], [-6.8104915, 34.0463713], [-6.8088736, 34.0489081], [-6.8059232, 34.0523571], [-6.8010828, 34.0575167], [-6.7971899, 34.0618146], [-6.7932576, 34.0653938], [-6.789508, 34.0688804], [-6.7850448, 34.0730218], [-6.7839852, 34.0739509], [-6.7823077, 34.0754444], [-6.7846343, 34.0774132], [-6.7883477, 34.0804372], [-6.7920514, 34.0828535], [-6.7933408, 34.081424], [-6.7934252, 34.0813441], [-6.7935084, 34.0812752], [-6.7942607, 34.0808132], [-6.7943694, 34.0807387], [-6.7944552, 34.0806633], [-6.7948615, 34.0801112], [-6.7949528, 34.0800412], [-6.7950332, 34.0799912], [-6.7951298, 34.0799468], [-6.7955424, 34.0797441], [-6.7956458, 34.0796698], [-6.7957288, 34.0795985], [-6.7958135, 34.0795117], [-6.7958787, 34.0794316], [-6.7959492, 34.0793253], [-6.7961168, 34.0787915], [-6.7961665, 34.0786982], [-6.7962134, 34.0786182], [-6.7965728, 34.0781695], [-6.7966211, 34.0780717], [-6.7966533, 34.0779729], [-6.7966667, 34.0778651], [-6.7966546, 34.0776963], [-6.796664, 34.0776308], [-6.7966881, 34.0775541], [-6.797179, 34.0770009], [-6.7972809, 34.0769565], [-6.7974016, 34.0769543], [-6.7979407, 34.076972], [-6.7980671, 34.076905], [-6.7981848, 34.076821], [-6.7984007, 34.0763333], [-6.798453, 34.0762544], [-6.7984959, 34.0762089], [-6.7985523, 34.0761634], [-6.8000798, 34.0753502], [-6.8001643, 34.0752458], [-6.8002005, 34.0751736], [-6.800226, 34.0750814], [-6.8002502, 34.0749493], [-6.8001549, 34.0743383], [-6.8001844, 34.0742605], [-6.8002474, 34.0742005], [-6.8003078, 34.0741827], [-6.8003896, 34.0741761], [-6.8007248, 34.0742972], [-6.8008617, 34.0742827], [-6.8009582, 34.0742261], [-6.8010253, 34.0741594], [-6.8010874, 34.0739353], [-6.8011416, 34.0738814], [-6.8012028, 34.073837], [-6.8012806, 34.073797], [-6.8013798, 34.0737652], [-6.8016959, 34.073705], [-6.8018018, 34.0736417], [-6.8018742, 34.0735451], [-6.801901, 34.0734418], [-6.8018943, 34.0733229], [-6.8018608, 34.0732341], [-6.801677, 34.0729847], [-6.8016794, 34.0729379], [-6.8016993, 34.0729051], [-6.8017322, 34.0728804], [-6.8017777, 34.0728668], [-6.8026212, 34.0727463], [-6.8026668, 34.0727219], [-6.8027043, 34.0726819], [-6.8027245, 34.0726386], [-6.8027285, 34.072592], [-6.8025863, 34.0722587], [-6.8025729, 34.0722065], [-6.8025714, 34.0721594], [-6.8025836, 34.0721076], [-6.8026145, 34.0720743], [-6.8030772, 34.0719277], [-6.8031462, 34.071926], [-6.803214, 34.0719366], [-6.8032696, 34.0719549], [-6.8033078, 34.0719877], [-6.80345, 34.0723776], [-6.8034849, 34.0724442], [-6.8035439, 34.0724909], [-6.8036283, 34.0725131], [-6.8041993, 34.0723661], [-6.8042589, 34.07229], [-6.8042858, 34.072216], [-6.8042884, 34.0721355], [-6.8042359, 34.0719066], [-6.8042184, 34.0718566], [-6.8041889, 34.0718077], [-6.8036672, 34.0713189], [-6.8036364, 34.0712578], [-6.8036297, 34.0712067], [-6.8036377, 34.0711345], [-6.803678, 34.0710479], [-6.8044008, 34.070318], [-6.8044906, 34.0702614], [-6.8045899, 34.0702447], [-6.8046878, 34.0702569], [-6.8047549, 34.0702791], [-6.8048179, 34.0703224], [-6.8054402, 34.0710816], [-6.8055069, 34.0711073], [-6.8055661, 34.0711043], [-6.8056052, 34.0710888], [-6.8056722, 34.0710112], [-6.8056977, 34.0710012], [-6.8057191, 34.070999], [-6.8057406, 34.0709989], [-6.8059433, 34.071072], [-6.8059603, 34.0710724], [-6.8059719, 34.0710666], [-6.8059783, 34.071058], [-6.8059794, 34.0710472], [-6.8057138, 34.0705546], [-6.8057379, 34.0705168], [-6.8057741, 34.0704924], [-6.8058211, 34.0704835], [-6.8058828, 34.0704846], [-6.8063307, 34.0709079], [-6.8063883, 34.070939], [-6.8064353, 34.0709568], [-6.8064889, 34.0709712], [-6.8071155, 34.0709495], [-6.8071568, 34.070954], [-6.8071967, 34.0709629], [-6.8072266, 34.0709762], [-6.8073902, 34.0711412], [-6.8074351, 34.0711684], [-6.8074767, 34.0711778], [-6.8075162, 34.0711722], [-6.8075645, 34.0711245], [-6.8075799, 34.0711187], [-6.8075953, 34.0711187], [-6.8076107, 34.0711211], [-6.8076718, 34.0711589], [-6.8077087, 34.0711917], [-6.8077308, 34.0712206], [-6.8077536, 34.0712556], [-6.8077697, 34.0713361], [-6.8077794, 34.0713503], [-6.8077942, 34.0713617], [-6.807822, 34.07137], [-6.8080288, 34.0714113], [-6.8080647, 34.071396], [-6.8080883, 34.0713673], [-6.8080922, 34.0713333], [-6.807871, 34.0710761], [-6.8078629, 34.0710617], [-6.8078555, 34.0710456], [-6.8078392, 34.0709824], [-6.8078289, 34.070962], [-6.807811, 34.070939], [-6.807782, 34.070915], [-6.8077546, 34.0709005], [-6.807543, 34.0708357], [-6.8074572, 34.0707774], [-6.8073982, 34.0707235], [-6.8073607, 34.0706735], [-6.8073379, 34.0705902], [-6.8073512, 34.0705068], [-6.807421, 34.0703713], [-6.8074505, 34.070288], [-6.8074424, 34.0701946], [-6.8071903, 34.0697415], [-6.807193, 34.0696725], [-6.8072225, 34.069607], [-6.8073043, 34.069547], [-6.8073862, 34.0695037], [-6.8078206, 34.0694737], [-6.8078542, 34.0694615], [-6.8078864, 34.0694348], [-6.8079575, 34.0693082], [-6.8079709, 34.0692659], [-6.8079708, 34.0692159], [-6.8076972, 34.0687233], [-6.8076859, 34.068711], [-6.8076674, 34.068703], [-6.8075742, 34.0687033], [-6.8075585, 34.0686997], [-6.8074703, 34.0686469], [-6.8073186, 34.0684857], [-6.8073003, 34.0684461], [-6.8072963, 34.0683994], [-6.8073186, 34.0683502], [-6.807362, 34.0683083], [-6.8074022, 34.0682961], [-6.8074556, 34.0682987], [-6.8077427, 34.0684169], [-6.8077783, 34.0684126], [-6.8078059, 34.068396], [-6.8078203, 34.0683737], [-6.8078206, 34.0683411], [-6.8078097, 34.068322], [-6.8074868, 34.0680534], [-6.807473, 34.0680389], [-6.8074666, 34.0680209], [-6.8074693, 34.0680028], [-6.8075431, 34.0679042], [-6.8075631, 34.0678945], [-6.8075873, 34.0678912], [-6.8076155, 34.0678972], [-6.8077476, 34.0679624], [-6.8078475, 34.0679984], [-6.8079096, 34.067997], [-6.8079615, 34.0679706], [-6.8080344, 34.0678715], [-6.8081492, 34.0678373], [-6.8082635, 34.067856], [-6.8083483, 34.0679093], [-6.8084295, 34.068195], [-6.8084832, 34.068265], [-6.8085985, 34.0683261], [-6.8087178, 34.0683339], [-6.8087916, 34.0682906], [-6.8089056, 34.0681095], [-6.8090518, 34.0679684], [-6.8092959, 34.067814], [-6.809501, 34.0677562], [-6.8096808, 34.067754], [-6.8098831, 34.0677954], [-6.8099927, 34.0678004], [-6.8100693, 34.067774], [-6.8101276, 34.0677263], [-6.8101599, 34.0676653], [-6.8101612, 34.06759], [-6.810138, 34.0675381], [-6.8100526, 34.0674681], [-6.8097639, 34.0673684], [-6.8096942, 34.0672985], [-6.809658, 34.0672229], [-6.8096392, 34.0671507], [-6.8095895, 34.0667574], [-6.809544, 34.066703], [-6.8094903, 34.0666541], [-6.809422, 34.0666152], [-6.8091711, 34.0665375], [-6.8091363, 34.0665097], [-6.8091095, 34.0664753], [-6.8090974, 34.0664397], [-6.8091711, 34.0661864], [-6.8091618, 34.0661398], [-6.8091108, 34.0660842], [-6.8090371, 34.0660531], [-6.8085181, 34.0659165], [-6.8084577, 34.0658898], [-6.8084268, 34.0658465], [-6.8084148, 34.0657987], [-6.8084184, 34.0656343], [-6.8084368, 34.0655399], [-6.8084804, 34.0654488], [-6.8085443, 34.0653704], [-6.8086743, 34.065279], [-6.8088472, 34.0652066], [-6.8089888, 34.0651909], [-6.809162, 34.0652177], [-6.8092993, 34.0652826], [-6.8097402, 34.0656576], [-6.8097715, 34.0656663], [-6.8098009, 34.0656647], [-6.809829, 34.0656537], [-6.8098479, 34.0656373], [-6.8098582, 34.0656195], [-6.8098618, 34.0655998], [-6.8098256, 34.0649666], [-6.8098685, 34.0649299], [-6.8099168, 34.0649133], [-6.8099758, 34.0649144], [-6.8100308, 34.0649366], [-6.8102373, 34.0652576], [-6.8102816, 34.0653388], [-6.8103339, 34.0653976], [-6.8103902, 34.0654443], [-6.8104613, 34.0654754], [-6.810936, 34.0655498], [-6.8110017, 34.0655365], [-6.81104, 34.0655143], [-6.8110674, 34.0654898], [-6.8112605, 34.065221], [-6.8112928, 34.0651277], [-6.8113089, 34.0650121], [-6.8112364, 34.0648599], [-6.8109377, 34.0645285], [-6.8109441, 34.0644544], [-6.8109575, 34.0643833], [-6.8109897, 34.0643088], [-6.8113706, 34.0641045], [-6.8114322, 34.0640489], [-6.8114617, 34.0639767], [-6.8114591, 34.0639189], [-6.8113263, 34.0635523], [-6.8113572, 34.0634745], [-6.8114497, 34.0634523], [-6.8115543, 34.0634567], [-6.8119205, 34.0636045], [-6.8119928, 34.0635984], [-6.8120451, 34.0635723], [-6.812082, 34.0635201], [-6.8120887, 34.0633937], [-6.8120927, 34.0633712], [-6.8121048, 34.0633515], [-6.8121216, 34.0633323], [-6.8123978, 34.0632701], [-6.8125708, 34.0632612], [-6.8127332, 34.063269], [-6.8128752, 34.0633356], [-6.8133875, 34.0638134], [-6.8137416, 34.0640867], [-6.8137671, 34.0640984], [-6.8137939, 34.0641045], [-6.8142673, 34.0641622], [-6.8143062, 34.0641467], [-6.8143344, 34.0641145], [-6.8143438, 34.0640656], [-6.8143277, 34.06401], [-6.8142043, 34.0639067], [-6.8141963, 34.0638762], [-6.8141989, 34.0638434], [-6.814211, 34.0638123], [-6.8144417, 34.0636479], [-6.8144779, 34.0635979], [-6.8144779, 34.0635434], [-6.8144631, 34.0634946], [-6.8139629, 34.0631368], [-6.8139448, 34.063119], [-6.8139361, 34.0630946], [-6.8139354, 34.0630652], [-6.8141775, 34.062478], [-6.8141855, 34.0624402], [-6.8141882, 34.0624091], [-6.8141815, 34.062378], [-6.8140219, 34.0621447], [-6.8140809, 34.0620658], [-6.8141748, 34.0620169], [-6.8142633, 34.0620136], [-6.8143746, 34.062028], [-6.8144725, 34.0620868], [-6.8152356, 34.0629413], [-6.8152356, 34.0629707], [-6.8152276, 34.0629946], [-6.815189, 34.0630504], [-6.8151843, 34.0630604], [-6.8151867, 34.0630699], [-6.815194, 34.0630765], [-6.8158927, 34.0633724], [-6.8159417, 34.0633807], [-6.8159846, 34.0633701], [-6.8160148, 34.0633457], [-6.8164212, 34.0627885], [-6.8164248, 34.0627724], [-6.8164215, 34.0627565], [-6.8164138, 34.0627413], [-6.8163098, 34.0626635], [-6.8162937, 34.0625946], [-6.8163072, 34.062528], [-6.8163796, 34.0624735], [-6.8164587, 34.062458], [-6.816629, 34.062499], [-6.8167028, 34.0624724], [-6.8167511, 34.0624246], [-6.8167805, 34.0623768], [-6.8170193, 34.0618147], [-6.8170998, 34.0615392], [-6.8170997, 34.0612614], [-6.8169844, 34.060997], [-6.8169938, 34.0609725], [-6.8170193, 34.0609481], [-6.8172064, 34.0608509], [-6.8172352, 34.060847], [-6.8172587, 34.0608525], [-6.817435, 34.0610503], [-6.8174625, 34.0610525], [-6.8174833, 34.0610459], [-6.8178951, 34.0607203], [-6.8188003, 34.0595004], [-6.8188144, 34.0594721], [-6.818811, 34.0594471], [-6.8188003, 34.0594282], [-6.8183658, 34.0591132], [-6.8183651, 34.0590915], [-6.8183805, 34.0590638], [-6.8184026, 34.0590449], [-6.8184382, 34.059036], [-6.8185341, 34.0590649], [-6.8185662, 34.0590588], [-6.8186011, 34.0590427], [-6.8186192, 34.0590193], [-6.8186347, 34.058991], [-6.8186287, 34.0587838], [-6.8186417, 34.0587727], [-6.8186595, 34.0587655], [-6.8186762, 34.0587652], [-6.818693, 34.0587683], [-6.8193569, 34.0590304], [-6.8193746, 34.059034], [-6.8193914, 34.0590332], [-6.8194105, 34.0590283], [-6.8202647, 34.0581027], [-6.8202929, 34.0580272], [-6.8202942, 34.0579561], [-6.8201347, 34.0578016], [-6.8201333, 34.0577494], [-6.8201522, 34.0577016], [-6.8201964, 34.0576805], [-6.8202313, 34.057676], [-6.8204579, 34.0577927], [-6.8205142, 34.0577883], [-6.8205598, 34.0577661], [-6.8210573, 34.0573283], [-6.8212572, 34.057095], [-6.8214382, 34.0568438], [-6.821461, 34.0568066], [-6.8214771, 34.0567683], [-6.8216394, 34.0562805], [-6.8216783, 34.0562525], [-6.8217091, 34.0562361], [-6.8217514, 34.0562261], [-6.8217923, 34.0562261], [-6.8219251, 34.0562339], [-6.8219834, 34.0562067], [-6.8220095, 34.0561711], [-6.8220176, 34.0561328], [-6.8220001, 34.0558528], [-6.8220042, 34.0558172], [-6.8220156, 34.055785], [-6.822035, 34.0557539], [-6.822988, 34.0548647], [-6.8243312, 34.0539003], [-6.8243633, 34.0538743], [-6.8243815, 34.0538413], [-6.8243906, 34.053807], [-6.8242348, 34.0534883], [-6.8242414, 34.0534629], [-6.8242572, 34.0534375], [-6.8242878, 34.0534155], [-6.824331, 34.0533976], [-6.8245034, 34.0533866], [-6.8245548, 34.0533578], [-6.8245937, 34.0533145], [-6.8246144, 34.0532675], [-6.824787, 34.052675], [-6.8248272, 34.0526094], [-6.8248816, 34.0525372], [-6.8263164, 34.0510146], [-6.8262655, 34.050897], [-6.8262662, 34.0508885], [-6.8262712, 34.0508799], [-6.8263692, 34.050811], [-6.8263866, 34.0508113], [-6.8264023, 34.0508171], [-6.8264576, 34.050873], [-6.826469, 34.0508777], [-6.8264815, 34.0508777], [-6.8276669, 34.0500103], [-6.827705, 34.0499702], [-6.8277298, 34.0499184], [-6.8277224, 34.0493368], [-6.8277763, 34.04925], [-6.8278363, 34.0492014], [-6.8279256, 34.0491655], [-6.8281817, 34.0491183], [-6.828204, 34.0490958], [-6.8282206, 34.0490718], [-6.8282288, 34.0490518], [-6.828251, 34.0486011], [-6.8282567, 34.0485855], [-6.8282687, 34.0485731], [-6.8282859, 34.0485615], [-6.8288324, 34.0482901], [-6.8288618, 34.048266], [-6.8288864, 34.0482343], [-6.829009, 34.0479493], [-6.8296142, 34.0473112], [-6.8296187, 34.0472935], [-6.82962, 34.0472766], [-6.8296157, 34.0472617], [-6.8295293, 34.0471394], [-6.8295313, 34.0471121], [-6.829544, 34.0470843], [-6.8297104, 34.0468579], [-6.8298865, 34.0466926], [-6.8300013, 34.0466595], [-6.8301057, 34.0466508], [-6.8302345, 34.0466768], [-6.8304508, 34.046797], [-6.8304979, 34.0468188], [-6.8305509, 34.0468312], [-6.8306131, 34.0468367], [-6.8308378, 34.0467762], [-6.8309232, 34.0467433], [-6.8309787, 34.0467014], [-6.831006, 34.0466552], [-6.8307702, 34.046024], [-6.8307686, 34.0459763], [-6.8307759, 34.0459321], [-6.8307899, 34.045893], [-6.8327438, 34.0438063], [-6.8338512, 34.0425641], [-6.8340635, 34.0422579], [-6.8340866, 34.0422138], [-6.8341049, 34.0421616], [-6.8341563, 34.0417453], [-6.8342112, 34.0416338], [-6.8344889, 34.0410969], [-6.8345956, 34.0407891], [-6.834656, 34.0405463], [-6.8346603, 34.0404099], [-6.8346603, 34.0402766], [-6.8346354, 34.0401488], [-6.8345456, 34.0399761], [-6.8341121, 34.0394789], [-6.8341074, 34.039401], [-6.834143, 34.0393492], [-6.8342251, 34.0393159], [-6.8377583, 34.0396803], [-6.8378014, 34.039693], [-6.8378376, 34.0397089], [-6.837962, 34.0397739], [-6.8380494, 34.0398208], [-6.8381296, 34.0398363], [-6.8381977, 34.0398399], [-6.8382789, 34.0398294], [-6.8383449, 34.0398117], [-6.8384206, 34.0397626], [-6.8384538, 34.0397037], [-6.8384663, 34.0396436], [-6.8384753, 34.0395732], [-6.838455, 34.0395132], [-6.8384057, 34.0394646], [-6.8383307, 34.0394351]]]]}}, {"type": "Feature", "properties": {"nom": "Layayda", "osm_id": 2801067}, "geometry": {"type": "MultiPolygon", "coordinates": [[[[-6.7920514, 34.0828535], [-6.7883477, 34.0804372], [-6.7846343, 34.0774132], [-6.7823077, 34.0754444], [-6.7839852, 34.0739509], [-6.7800341, 34.0711979], [-6.7795054, 34.0702299], [-6.7789721, 34.0696909], [-6.7773414, 34.0708751], [-6.7763747, 34.0700828], [-6.7761827, 34.0697354], [-6.7770013, 34.0690995], [-6.7803138, 34.0641628], [-6.7787132, 34.0630541], [-6.7784536, 34.0621388], [-6.7783698, 34.0618242], [-6.7782106, 34.0612263], [-6.7777975, 34.0596148], [-6.7775559, 34.0588628], [-6.7780387, 34.0585184], [-6.7783499, 34.058162], [-6.7773073, 34.0575249], [-6.7760166, 34.0567385], [-6.772909, 34.0542309], [-6.7731182, 34.0537094], [-6.7734602, 34.052966], [-6.7735302, 34.0522329], [-6.7736077, 34.0514066], [-6.7738477, 34.0504589], [-6.7739658, 34.0487943], [-6.7740605, 34.0478778], [-6.774112, 34.0471726], [-6.7741015, 34.0467426], [-6.7745574, 34.0435298], [-6.7748524, 34.0419918], [-6.7752816, 34.0381911], [-6.7757257, 34.0339448], [-6.7756477, 34.0331536], [-6.7753146, 34.0330506], [-6.7703447, 34.0324916], [-6.7636757, 34.0317786], [-6.7628828, 34.0317759], [-6.7502459, 34.0305004], [-6.745611, 34.0300203], [-6.7416252, 34.0296424], [-6.7352952, 34.0290467], [-6.7313309, 34.0286688], [-6.7274203, 34.0282509], [-6.7260953, 34.0277974], [-6.7245771, 34.0268282], [-6.7241395, 34.0265378], [-6.7222849, 34.0253072], [-6.7208757, 34.0248275], [-6.7191867, 34.0247526], [-6.7190874, 34.0247527], [-6.7175281, 34.0270971], [-6.715039, 34.0296473], [-6.7155218, 34.03248], [-6.7177105, 34.0337657], [-6.7200708, 34.032007], [-6.7242336, 34.0333372], [-6.7250061, 34.0345108], [-6.7264245, 34.0347597], [-6.7211008, 34.0384565], [-6.7214699, 34.0394487], [-6.7220879, 34.0392833], [-6.7227316, 34.0413743], [-6.7235813, 34.0423576], [-6.7248902, 34.0439738], [-6.7230749, 34.0461714], [-6.7258773, 34.0479084], [-6.7246581, 34.0497595], [-6.7291696, 34.0523025], [-6.7309291, 34.0593966], [-6.7320878, 34.0598943], [-6.7359931, 34.0609076], [-6.7361734, 34.0611254], [-6.7359073, 34.061832], [-6.7362506, 34.0622408], [-6.7363794, 34.062703], [-6.7362077, 34.0643028], [-6.7373106, 34.0696932], [-6.737654, 34.0700487], [-6.7380485, 34.0701428], [-6.7404864, 34.0707241], [-6.7548976, 34.0799184], [-6.756644, 34.0810326], [-6.7586181, 34.0826321], [-6.7600043, 34.0834985], [-6.760884, 34.0842804], [-6.7631586, 34.086253], [-6.7664502, 34.088159], [-6.767051, 34.0883011], [-6.7679307, 34.0883011], [-6.7686662, 34.0887514], [-6.7673442, 34.0903225], [-6.768008, 34.0905358], [-6.7746813, 34.0947472], [-6.7755825, 34.0938054], [-6.778887, 34.0958844], [-6.7796044, 34.0974873], [-6.7805144, 34.0963314], [-6.7807558, 34.0960604], [-6.7810294, 34.0958227], [-6.782113, 34.0949432], [-6.7822525, 34.0948565], [-6.782392, 34.0948632], [-6.7827702, 34.0950031], [-6.7829365, 34.0950409], [-6.7829861, 34.0950126], [-6.7829673, 34.0949582], [-6.7824805, 34.0946022], [-6.7823517, 34.0940725], [-6.7822619, 34.0934716], [-6.7822807, 34.0933761], [-6.7824228, 34.0932229], [-6.7825516, 34.0932018], [-6.7827031, 34.0932195], [-6.7829445, 34.0932517], [-6.7831711, 34.0931884], [-6.7835721, 34.0929774], [-6.7838699, 34.092722], [-6.7839879, 34.0924954], [-6.7839798, 34.0921933], [-6.7838913, 34.0919046], [-6.783607, 34.0917091], [-6.7835037, 34.0916114], [-6.7835426, 34.0914403], [-6.7837183, 34.0913792], [-6.7842373, 34.0915047], [-6.7844492, 34.0914536], [-6.7847335, 34.0911849], [-6.7847349, 34.0911183], [-6.784519, 34.0908783], [-6.7844331, 34.0907062], [-6.7844626, 34.0905751], [-6.7846812, 34.0904208], [-6.7848945, 34.090393], [-6.7852318, 34.090534], [-6.7853263, 34.0904885], [-6.7853504, 34.0903874], [-6.7851627, 34.0901675], [-6.7850634, 34.0898521], [-6.7851117, 34.0896411], [-6.785785, 34.0889769], [-6.7863482, 34.088406], [-6.786996, 34.0880117], [-6.787232, 34.0879218], [-6.7875418, 34.0879184], [-6.7876142, 34.0878973], [-6.7876357, 34.0877818], [-6.7875847, 34.0876663], [-6.7873701, 34.0875264], [-6.7873004, 34.0872132], [-6.7873353, 34.0870355], [-6.7883733, 34.085807], [-6.7887247, 34.0854049], [-6.7895803, 34.0848141], [-6.7900792, 34.0848052], [-6.7902133, 34.0847052], [-6.7902643, 34.0843609], [-6.7904949, 34.0836434], [-6.790975, 34.0832524], [-6.7914364, 34.0828836], [-6.7920514, 34.0828535]]]]}}, {"type": "Feature", "properties": {"nom": "Hassan", "osm_id": 4743369}, "geometry": {"type": "MultiPolygon", "coordinates": [[[[-6.8669593, 34.0102745], [-6.8675977, 34.0095542], [-6.8684426, 34.0088671], [-6.8669304, 34.00804], [-6.8652755, 34.0068994], [-6.8625423, 34.0050872], [-6.8599781, 34.0033017], [-6.8591502, 34.0028168], [-6.858995, 34.0031884], [-6.8589271, 34.003351], [-6.8588542, 34.0034778], [-6.858224, 34.0040666], [-6.857924, 34.004459], [-6.8577596, 34.0046396], [-6.8574476, 34.0049823], [-6.854383, 34.0083491], [-6.8515614, 34.0115241], [-6.8512878, 34.0117242], [-6.8489382, 34.0129559], [-6.8484607, 34.0133472], [-6.8475756, 34.0143254], [-6.8457946, 34.0163753], [-6.8439237, 34.0185315], [-6.8424819, 34.0199637], [-6.8423953, 34.0200702], [-6.8420756, 34.0204614], [-6.8414548, 34.0210661], [-6.8402837, 34.0213384], [-6.8401826, 34.0210965], [-6.8398763, 34.0203342], [-6.8395168, 34.0190622], [-6.839295, 34.0184272], [-6.8389088, 34.0171333], [-6.8390623, 34.0164553], [-6.8385403, 34.0159586], [-6.8384225, 34.0155255], [-6.8382573, 34.0150066], [-6.8381647, 34.0146875], [-6.8381041, 34.0144076], [-6.8378598, 34.0136997], [-6.8376602, 34.0130732], [-6.8374076, 34.0128244], [-6.8351934, 34.0133489], [-6.8349024, 34.0127444], [-6.8346728, 34.0121303], [-6.8344148, 34.0114729], [-6.8334121, 34.0117572], [-6.833723, 34.0124411], [-6.8336737, 34.0127444], [-6.8333942, 34.0129358], [-6.8333301, 34.0129616], [-6.8331549, 34.0128679], [-6.8328528, 34.0127725], [-6.8321958, 34.0125694], [-6.8313473, 34.0114367], [-6.8308392, 34.0106452], [-6.830199, 34.00973], [-6.8293275, 34.0087319], [-6.8291769, 34.0085733], [-6.8290035, 34.0084351], [-6.828444, 34.0079391], [-6.8283464, 34.0078526], [-6.8266973, 34.006508], [-6.8265283, 34.0062323], [-6.8266144, 34.0058783], [-6.8260505, 34.0063639], [-6.8246877, 34.0076553], [-6.8229451, 34.0090029], [-6.8214317, 34.0105439], [-6.8203219, 34.012097], [-6.8197586, 34.0134639], [-6.8198445, 34.0151073], [-6.8202951, 34.015519], [-6.8226286, 34.0167356], [-6.8231919, 34.0170958], [-6.8224993, 34.017365], [-6.8215498, 34.0176762], [-6.8206805, 34.0178558], [-6.8204131, 34.0180112], [-6.8202084, 34.018216], [-6.8200188, 34.0187356], [-6.8198806, 34.0191366], [-6.8196297, 34.0194102], [-6.8192703, 34.0195969], [-6.8192101, 34.0195945], [-6.8190074, 34.0195992], [-6.818707, 34.0194925], [-6.8184741, 34.0193025], [-6.8183467, 34.0190444], [-6.818237, 34.0186395], [-6.8180626, 34.0182382], [-6.8178321, 34.0180851], [-6.8175753, 34.0179825], [-6.817317, 34.0179359], [-6.8159008, 34.0179448], [-6.8146669, 34.0181537], [-6.8117919, 34.0188901], [-6.8098443, 34.0192964], [-6.8084657, 34.0195232], [-6.8074143, 34.0196753], [-6.8070334, 34.0181464], [-6.8072467, 34.0211065], [-6.8086616, 34.0238529], [-6.8102273, 34.0251991], [-6.8109867, 34.0257386], [-6.8119452, 34.02614], [-6.8151678, 34.0272206], [-6.8165827, 34.0274611], [-6.821006, 34.0271783], [-6.8239629, 34.0273702], [-6.8241108, 34.0267921], [-6.8247386, 34.0268166], [-6.8278728, 34.0275146], [-6.8278898, 34.0275185], [-6.8279072, 34.0275226], [-6.8279226, 34.0275262], [-6.8279156, 34.0275451], [-6.8290369, 34.0277619], [-6.8290986, 34.0277724], [-6.8291536, 34.0277808], [-6.8302662, 34.0279339], [-6.8302546, 34.0279782], [-6.8303677, 34.0280159], [-6.8310972, 34.0282591], [-6.8310842, 34.0282849], [-6.8310776, 34.0282982], [-6.8310687, 34.0283158], [-6.8314675, 34.0284507], [-6.8315875, 34.0283572], [-6.8321822, 34.0287759], [-6.8321674, 34.0287915], [-6.8326388, 34.0291222], [-6.8325902, 34.0291631], [-6.8334738, 34.0300316], [-6.8343566, 34.0307635], [-6.834408, 34.0308328], [-6.8344321, 34.0308913], [-6.8347208, 34.0325319], [-6.8346342, 34.0331691], [-6.8346394, 34.0331906], [-6.8346503, 34.0332148], [-6.8348352, 34.0334507], [-6.8348654, 34.0334785], [-6.8348949, 34.0334978], [-6.8351047, 34.0335813], [-6.8351316, 34.0335952], [-6.8351651, 34.0336174], [-6.8354011, 34.0338597], [-6.8354226, 34.0338675], [-6.8354463, 34.0338659], [-6.8355279, 34.0338197], [-6.835543, 34.0338155], [-6.8355601, 34.0338147], [-6.8356718, 34.0338316], [-6.8356031, 34.0341337], [-6.8355517, 34.034486], [-6.8355339, 34.0346751], [-6.8355396, 34.0348722], [-6.8355688, 34.0350386], [-6.835622, 34.0351846], [-6.8357061, 34.0353306], [-6.8358453, 34.0355185], [-6.8364193, 34.0360818], [-6.8364409, 34.0360982], [-6.8364661, 34.0361077], [-6.8364967, 34.0361109], [-6.8365254, 34.036106], [-6.8365508, 34.036094], [-6.8365722, 34.0360738], [-6.8365841, 34.0360488], [-6.8365848, 34.036022], [-6.8365691, 34.0359921], [-6.8359557, 34.0354173], [-6.8358511, 34.0352606], [-6.8357813, 34.0350905], [-6.8357411, 34.0348749], [-6.8357514, 34.0347773], [-6.8361649, 34.0345793], [-6.8364251, 34.0344904], [-6.8366827, 34.0344254], [-6.8370178, 34.0343637], [-6.837337, 34.0343304], [-6.8376803, 34.0343304], [-6.8380307, 34.0343532], [-6.8384049, 34.0343855], [-6.8386808, 34.0344193], [-6.8389481, 34.0344666], [-6.8392416, 34.034551], [-6.8391757, 34.035514], [-6.8391824, 34.0356684], [-6.8392222, 34.0362202], [-6.8392973, 34.0365536], [-6.8393473, 34.0367153], [-6.8394154, 34.036887], [-6.8395709, 34.0371626], [-6.8397345, 34.0374587], [-6.839747, 34.0374872], [-6.8397583, 34.0375223], [-6.8397867, 34.0376681], [-6.8398233, 34.0377373], [-6.8398829, 34.0378019], [-6.8399669, 34.0378387], [-6.8400563, 34.0378472], [-6.8401386, 34.0378389], [-6.8402109, 34.0378095], [-6.8402828, 34.0377517], [-6.8403348, 34.0376752], [-6.8403518, 34.0375994], [-6.8403389, 34.0375308], [-6.8398512, 34.0368087], [-6.8397215, 34.0365666], [-6.8396464, 34.0363619], [-6.8396108, 34.0361269], [-6.8396035, 34.0353699], [-6.8396218, 34.0330736], [-6.8416905, 34.0321624], [-6.8419882, 34.0320384], [-6.8423226, 34.0319281], [-6.8426593, 34.0318222], [-6.8427363, 34.0317864], [-6.8428821, 34.0316927], [-6.8429777, 34.0316408], [-6.8430769, 34.0316113], [-6.8431923, 34.0315963], [-6.8432999, 34.0316064], [-6.8434069, 34.031633], [-6.8434992, 34.0316805], [-6.843743, 34.0318322], [-6.8438809, 34.031973], [-6.8439821, 34.032071], [-6.8440894, 34.0321232], [-6.8441713, 34.0321277], [-6.8442269, 34.0321186], [-6.8442638, 34.0320943], [-6.844304, 34.0320443], [-6.8444236, 34.0319413], [-6.8445756, 34.0318741], [-6.8447176, 34.0318237], [-6.8448271, 34.0317533], [-6.8449098, 34.0317113], [-6.8449981, 34.0316865], [-6.8451704, 34.0316529], [-6.8452525, 34.0315727], [-6.8452598, 34.0315212], [-6.8452077, 34.0314678], [-6.8450966, 34.0314272], [-6.8449812, 34.0313588], [-6.844917, 34.0313116], [-6.8448297, 34.0312651], [-6.8446952, 34.0311564], [-6.8446396, 34.0310354], [-6.8446541, 34.0309317], [-6.8447118, 34.0308572], [-6.8447871, 34.030833], [-6.844948, 34.0308706], [-6.8449901, 34.0308634], [-6.8450394, 34.0308247], [-6.8451259, 34.0305659], [-6.8451376, 34.0302933], [-6.8451993, 34.0302577], [-6.8452999, 34.030251], [-6.8454689, 34.0302877], [-6.8456847, 34.0303332], [-6.8457706, 34.0303444], [-6.8458162, 34.030351], [-6.8459074, 34.0303811], [-6.8460107, 34.0304155], [-6.84613, 34.0304567], [-6.8462574, 34.0305089], [-6.8463153, 34.0305025], [-6.8463703, 34.0304703], [-6.8464391, 34.0304433], [-6.8465237, 34.0303983], [-6.8465946, 34.0303399], [-6.8466747, 34.0302458], [-6.8466606, 34.0301461], [-6.8464809, 34.0297682], [-6.8464595, 34.0295637], [-6.8465721, 34.0292347], [-6.8467214, 34.029055], [-6.846731, 34.0288901], [-6.846562, 34.028481], [-6.8466345, 34.0282965], [-6.8469873, 34.0281272], [-6.8472406, 34.0280196], [-6.847473, 34.0280221], [-6.8477118, 34.0281531], [-6.8478129, 34.0285554], [-6.8479165, 34.0286366], [-6.8480319, 34.0286811], [-6.8480976, 34.0287166], [-6.8484087, 34.0288422], [-6.8484731, 34.0288375], [-6.8486408, 34.0286263], [-6.8485969, 34.0285143], [-6.8484427, 34.0284265], [-6.8483783, 34.0283332], [-6.8484788, 34.0282442], [-6.8486129, 34.0282242], [-6.8489012, 34.0282864], [-6.8490864, 34.0281709], [-6.8491011, 34.0280775], [-6.8489053, 34.0279474], [-6.8488544, 34.0279019], [-6.8488718, 34.0278263], [-6.8489309, 34.0277508], [-6.8490005, 34.0277341], [-6.8491936, 34.0277885], [-6.8494807, 34.0278096], [-6.8495947, 34.0277185], [-6.8495946, 34.0276818], [-6.8493862, 34.027559], [-6.8493452, 34.0275162], [-6.8493627, 34.027424], [-6.8494526, 34.027384], [-6.8496323, 34.0274318], [-6.8503068, 34.0274206], [-6.8504583, 34.0273284], [-6.8507694, 34.0270571], [-6.8507855, 34.0269394], [-6.8507668, 34.0266671], [-6.8507963, 34.0265615], [-6.8508446, 34.0265381], [-6.8510109, 34.0265281], [-6.8510753, 34.0264826], [-6.8510752, 34.0263214], [-6.8509411, 34.0259879], [-6.8508686, 34.0258057], [-6.8509009, 34.0257078], [-6.8509867, 34.0257145], [-6.8512952, 34.0260635], [-6.8515473, 34.0260991], [-6.8519764, 34.0260813], [-6.8524324, 34.025919], [-6.8525558, 34.0256634], [-6.8525116, 34.0254722], [-6.8525425, 34.0254144], [-6.8529554, 34.0253554], [-6.8530225, 34.025321], [-6.8530742, 34.0248148], [-6.8530923, 34.0247864], [-6.8532183, 34.0247787], [-6.8532424, 34.0247608], [-6.8532357, 34.0246119], [-6.8532787, 34.0245675], [-6.853563, 34.0245841], [-6.8536113, 34.0245463], [-6.8536313, 34.0243941], [-6.8536005, 34.0241072], [-6.8536287, 34.0238205], [-6.8537414, 34.0232759], [-6.853724, 34.0231725], [-6.8537574, 34.023137], [-6.8541316, 34.0231236], [-6.854204, 34.0230302], [-6.8541947, 34.0229913], [-6.8539707, 34.0228234], [-6.8539613, 34.0227907], [-6.8539915, 34.022774], [-6.8541437, 34.0227101], [-6.8544106, 34.0227635], [-6.8545836, 34.0228491], [-6.8548787, 34.0227979], [-6.855051, 34.0226673], [-6.8551965, 34.0225412], [-6.8553199, 34.0224278], [-6.8554084, 34.022171], [-6.8555397, 34.0220504], [-6.8557315, 34.0217993], [-6.8557834, 34.0217363], [-6.8558366, 34.0215976], [-6.855883, 34.0215204], [-6.8559716, 34.0214248], [-6.8564249, 34.020869], [-6.8565014, 34.0208305], [-6.8567549, 34.020885], [-6.856826, 34.0208372], [-6.8567911, 34.0205371], [-6.8569023, 34.0204478], [-6.8571531, 34.0204321], [-6.8572751, 34.0204344], [-6.8573555, 34.0203755], [-6.8574858, 34.0201502], [-6.8579042, 34.0199502], [-6.8582958, 34.0195945], [-6.8583789, 34.0194499], [-6.8584943, 34.0192943], [-6.8584722, 34.0190032], [-6.8580692, 34.0185262], [-6.8580716, 34.0184426], [-6.8581157, 34.0183946], [-6.8583523, 34.0183025], [-6.8584444, 34.0182478], [-6.858742, 34.0179037], [-6.8590856, 34.0176601], [-6.8591702, 34.0175714], [-6.8592493, 34.0175603], [-6.8593298, 34.0175869], [-6.8596208, 34.0178515], [-6.8597391, 34.0178828], [-6.859881, 34.0178382], [-6.8599663, 34.0177565], [-6.8601379, 34.017434], [-6.86039, 34.0172118], [-6.8609619, 34.0166287], [-6.8626571, 34.0147145], [-6.8631452, 34.0142921], [-6.8650147, 34.0125557], [-6.8655056, 34.0120866], [-6.8657953, 34.0111461], [-6.8660206, 34.0108971], [-6.8665382, 34.0106214], [-6.8665758, 34.0104546], [-6.8666133, 34.0103501], [-6.8667313, 34.0102901], [-6.8669593, 34.0102745]]], [[[-6.8473045, 34.0282736], [-6.8471235, 34.0282277], [-6.8470639, 34.0282683], [-6.8471689, 34.0283888], [-6.847281, 34.0283618], [-6.8473045, 34.0282736]]], [[[-6.8471137, 34.0305933], [-6.8470922, 34.0304376], [-6.8468679, 34.0304225], [-6.8467944, 34.0305015], [-6.8468859, 34.030625], [-6.8471137, 34.0305933]]], [[[-6.8458167, 34.0309151], [-6.8455793, 34.0307791], [-6.8454116, 34.0307071], [-6.8453397, 34.0307509], [-6.8452753, 34.0308187], [-6.8452902, 34.0308497], [-6.8454915, 34.0310675], [-6.8455913, 34.0310912], [-6.8458167, 34.0309151]]]]}}]}